{
"type": "FeatureCollection",
"name": "option_a_origins",
"crs": { "type": "name", "properties": { "name": "urn:ogc:def:crs:OGC:1.3:CRS84" } },
"features": [
{ "type": "Feature", "properties": { "학교": "숭실대", "node": 11413637721, "lat": 37.4922639, "lon": 126.9501085, "OSM_최근접_문": "정문", "OSM_문까지_m": 1075.5 }, "geometry": { "type": "Point", "coordinates": [ 126.9501085, 37.4922639 ] } },
{ "type": "Feature", "properties": { "학교": "숭실대", "node": 7256876661, "lat": 37.4933754, "lon": 126.9495395, "OSM_최근접_문": "정문", "OSM_문까지_m": 725.8 }, "geometry": { "type": "Point", "coordinates": [ 126.9495395, 37.4933754 ] } },
{ "type": "Feature", "properties": { "학교": "숭실대", "node": 10589255419, "lat": 37.4954948, "lon": 126.9492612, "OSM_최근접_문": "정문", "OSM_문까지_m": 696.8 }, "geometry": { "type": "Point", "coordinates": [ 126.9492612, 37.4954948 ] } },
{ "type": "Feature", "properties": { "학교": "숭실대", "node": 10570453205, "lat": 37.4963654, "lon": 126.9490035, "OSM_최근접_문": "정문", "OSM_문까지_m": 692.7 }, "geometry": { "type": "Point", "coordinates": [ 126.9490035, 37.4963654 ] } },
{ "type": "Feature", "properties": { "학교": "숭실대", "node": 11413637873, "lat": 37.4974045, "lon": 126.9499416, "OSM_최근접_문": "정문", "OSM_문까지_m": 526.1 }, "geometry": { "type": "Point", "coordinates": [ 126.9499416, 37.4974045 ] } },
{ "type": "Feature", "properties": { "학교": "숭실대", "node": 3337436860, "lat": 37.4988534, "lon": 126.9500192, "OSM_최근접_문": "정문", "OSM_문까지_m": 834.6 }, "geometry": { "type": "Point", "coordinates": [ 126.9500192, 37.4988534 ] } },
{ "type": "Feature", "properties": { "학교": "숭실대", "node": 11413637545, "lat": 37.4915474, "lon": 126.9513336, "OSM_최근접_문": "정문", "OSM_문까지_m": 930.2 }, "geometry": { "type": "Point", "coordinates": [ 126.9513336, 37.4915474 ] } },
{ "type": "Feature", "properties": { "학교": "숭실대", "node": 11413637659, "lat": 37.4916052, "lon": 126.9513915, "OSM_최근접_문": "정문", "OSM_문까지_m": 922.8 }, "geometry": { "type": "Point", "coordinates": [ 126.9513915, 37.4916052 ] } },
{ "type": "Feature", "properties": { "학교": "숭실대", "node": 10589255556, "lat": 37.4945049, "lon": 126.9506337, "OSM_최근접_문": "정문", "OSM_문까지_m": 786.6 }, "geometry": { "type": "Point", "coordinates": [ 126.9506337, 37.49450490000001 ] } },
{ "type": "Feature", "properties": { "학교": "숭실대", "node": 2825723246, "lat": 37.4953587, "lon": 126.9518191, "OSM_최근접_문": "정문", "OSM_문까지_m": 316.7 }, "geometry": { "type": "Point", "coordinates": [ 126.9518191, 37.4953587 ] } },
{ "type": "Feature", "properties": { "학교": "숭실대", "node": 2824550279, "lat": 37.4970964, "lon": 126.9506747, "OSM_최근접_문": "정문", "OSM_문까지_m": 449.3 }, "geometry": { "type": "Point", "coordinates": [ 126.9506747, 37.4970964 ] } },
{ "type": "Feature", "properties": { "학교": "숭실대", "node": 2824550284, "lat": 37.497363, "lon": 126.9521721, "OSM_최근접_문": "정문", "OSM_문까지_m": 308.7 }, "geometry": { "type": "Point", "coordinates": [ 126.9521721, 37.497363 ] } },
{ "type": "Feature", "properties": { "학교": "숭실대", "node": 11413637598, "lat": 37.4988728, "lon": 126.951478, "OSM_최근접_문": "정문", "OSM_문까지_m": 445.8 }, "geometry": { "type": "Point", "coordinates": [ 126.951478, 37.4988728 ] } },
{ "type": "Feature", "properties": { "학교": "숭실대", "node": 2825730235, "lat": 37.500597, "lon": 126.9512354, "OSM_최근접_문": "북문", "OSM_문까지_m": 686.6 }, "geometry": { "type": "Point", "coordinates": [ 126.9512354, 37.500597 ] } },
{ "type": "Feature", "properties": { "학교": "숭실대", "node": 1872054413, "lat": 37.4899875, "lon": 126.9535162, "OSM_최근접_문": "중문", "OSM_문까지_m": 837.0 }, "geometry": { "type": "Point", "coordinates": [ 126.9535162, 37.4899875 ] } },
{ "type": "Feature", "properties": { "학교": "숭실대", "node": 11413637577, "lat": 37.4907984, "lon": 126.9525614, "OSM_최근접_문": "정문", "OSM_문까지_m": 785.8 }, "geometry": { "type": "Point", "coordinates": [ 126.9525614, 37.4907984 ] } },
{ "type": "Feature", "properties": { "학교": "숭실대", "node": 10611854834, "lat": 37.4924815, "lon": 126.9533792, "OSM_최근접_문": "정문", "OSM_문까지_m": 454.6 }, "geometry": { "type": "Point", "coordinates": [ 126.9533792, 37.4924815 ] } },
{ "type": "Feature", "properties": { "학교": "숭실대", "node": 10589255561, "lat": 37.4942073, "lon": 126.9522692, "OSM_최근접_문": "정문", "OSM_문까지_m": 799.3 }, "geometry": { "type": "Point", "coordinates": [ 126.9522692, 37.4942073 ] } },
{ "type": "Feature", "properties": { "학교": "숭실대", "node": 2825723225, "lat": 37.495159, "lon": 126.9522954, "OSM_최근접_문": "정문", "OSM_문까지_m": 257.5 }, "geometry": { "type": "Point", "coordinates": [ 126.9522954, 37.495159 ] } },
{ "type": "Feature", "properties": { "학교": "숭실대", "node": 13296689136, "lat": 37.4961225, "lon": 126.9522234, "OSM_최근접_문": "정문", "OSM_문까지_m": 276.1 }, "geometry": { "type": "Point", "coordinates": [ 126.9522234, 37.4961225 ] } },
{ "type": "Feature", "properties": { "학교": "숭실대", "node": 11413637916, "lat": 37.4977929, "lon": 126.9525737, "OSM_최근접_문": "정문", "OSM_문까지_m": 303.6 }, "geometry": { "type": "Point", "coordinates": [ 126.9525737, 37.4977929 ] } },
{ "type": "Feature", "properties": { "학교": "숭실대", "node": 6963036771, "lat": 37.499685, "lon": 126.9531047, "OSM_최근접_문": "북문", "OSM_문까지_m": 551.6 }, "geometry": { "type": "Point", "coordinates": [ 126.9531047, 37.499685 ] } },
{ "type": "Feature", "properties": { "학교": "숭실대", "node": 2825731303, "lat": 37.5002985, "lon": 126.9529995, "OSM_최근접_문": "북문", "OSM_문까지_m": 633.4 }, "geometry": { "type": "Point", "coordinates": [ 126.9529995, 37.5002985 ] } },
{ "type": "Feature", "properties": { "학교": "숭실대", "node": 2825701322, "lat": 37.5016648, "lon": 126.9531303, "OSM_최근접_문": "북문", "OSM_문까지_m": 783.6 }, "geometry": { "type": "Point", "coordinates": [ 126.9531303, 37.5016648 ] } },
{ "type": "Feature", "properties": { "학교": "숭실대", "node": 13324709490, "lat": 37.4903582, "lon": 126.9544245, "OSM_최근접_문": "중문", "OSM_문까지_m": 744.3 }, "geometry": { "type": "Point", "coordinates": [ 126.9544245, 37.4903582 ] } },
{ "type": "Feature", "properties": { "학교": "숭실대", "node": 13324709401, "lat": 37.4916487, "lon": 126.9541699, "OSM_최근접_문": "정문", "OSM_문까지_m": 513.8 }, "geometry": { "type": "Point", "coordinates": [ 126.9541699, 37.4916487 ] } },
{ "type": "Feature", "properties": { "학교": "숭실대", "node": 2825723404, "lat": 37.4931561, "lon": 126.9546153, "OSM_최근접_문": "정문", "OSM_문까지_m": 333.7 }, "geometry": { "type": "Point", "coordinates": [ 126.9546153, 37.4931561 ] } },
{ "type": "Feature", "properties": { "학교": "숭실대", "node": 2825726591, "lat": 37.4937814, "lon": 126.9550092, "OSM_최근접_문": "정문", "OSM_문까지_m": 280.4 }, "geometry": { "type": "Point", "coordinates": [ 126.9550092, 37.4937814 ] } },
{ "type": "Feature", "properties": { "학교": "숭실대", "node": 13149390528, "lat": 37.4957714, "lon": 126.9543455, "OSM_최근접_문": "정문", "OSM_문까지_m": 2.9 }, "geometry": { "type": "Point", "coordinates": [ 126.954345500000017, 37.4957714 ] } },
{ "type": "Feature", "properties": { "학교": "숭실대", "node": 2825711413, "lat": 37.4971449, "lon": 126.9545095, "OSM_최근접_문": "북문", "OSM_문까지_m": 143.1 }, "geometry": { "type": "Point", "coordinates": [ 126.9545095, 37.4971449 ] } },
{ "type": "Feature", "properties": { "학교": "숭실대", "node": 3713157340, "lat": 37.4979788, "lon": 126.9555146, "OSM_최근접_문": "북문", "OSM_문까지_m": 0.6 }, "geometry": { "type": "Point", "coordinates": [ 126.9555146, 37.4979788 ] } },
{ "type": "Feature", "properties": { "학교": "숭실대", "node": 2824550315, "lat": 37.4995806, "lon": 126.9536195, "OSM_최근접_문": "북문", "OSM_문까지_m": 504.6 }, "geometry": { "type": "Point", "coordinates": [ 126.953619500000016, 37.4995806 ] } },
{ "type": "Feature", "properties": { "학교": "숭실대", "node": 4621466918, "lat": 37.5004244, "lon": 126.9537611, "OSM_최근접_문": "북문", "OSM_문까지_m": 600.1 }, "geometry": { "type": "Point", "coordinates": [ 126.9537611, 37.5004244 ] } },
{ "type": "Feature", "properties": { "학교": "숭실대", "node": 4621475837, "lat": 37.5016963, "lon": 126.9535939, "OSM_최근접_문": "북문", "OSM_문까지_m": 742.6 }, "geometry": { "type": "Point", "coordinates": [ 126.9535939, 37.5016963 ] } },
{ "type": "Feature", "properties": { "학교": "숭실대", "node": 2162056432, "lat": 37.4888032, "lon": 126.9567632, "OSM_최근접_문": "중문", "OSM_문까지_m": 872.4 }, "geometry": { "type": "Point", "coordinates": [ 126.9567632, 37.4888032 ] } },
{ "type": "Feature", "properties": { "학교": "숭실대", "node": 2477234585, "lat": 37.490104, "lon": 126.9562161, "OSM_최근접_문": "중문", "OSM_문까지_m": 820.2 }, "geometry": { "type": "Point", "coordinates": [ 126.95621610000002, 37.490104 ] } },
{ "type": "Feature", "properties": { "학교": "숭실대", "node": 2825728925, "lat": 37.4909803, "lon": 126.9571318, "OSM_최근접_문": "중문", "OSM_문까지_m": 645.0 }, "geometry": { "type": "Point", "coordinates": [ 126.9571318, 37.4909803 ] } },
{ "type": "Feature", "properties": { "학교": "숭실대", "node": 436821653, "lat": 37.4928023, "lon": 126.9565564, "OSM_최근접_문": "중문", "OSM_문까지_m": 343.9 }, "geometry": { "type": "Point", "coordinates": [ 126.9565564, 37.4928023 ] } },
{ "type": "Feature", "properties": { "학교": "숭실대", "node": 2825727124, "lat": 37.4933262, "lon": 126.9560715, "OSM_최근접_문": "정문", "OSM_문까지_m": 338.7 }, "geometry": { "type": "Point", "coordinates": [ 126.9560715, 37.4933262 ] } },
{ "type": "Feature", "properties": { "학교": "숭실대", "node": 4666594482, "lat": 37.4954732, "lon": 126.9555933, "OSM_최근접_문": "중문", "OSM_문까지_m": 103.6 }, "geometry": { "type": "Point", "coordinates": [ 126.955593300000018, 37.4954732 ] } },
{ "type": "Feature", "properties": { "학교": "숭실대", "node": 4654271182, "lat": 37.4982748, "lon": 126.956867, "OSM_최근접_문": "북문", "OSM_문까지_m": 123.2 }, "geometry": { "type": "Point", "coordinates": [ 126.956867, 37.4982748 ] } },
{ "type": "Feature", "properties": { "학교": "숭실대", "node": 8537501421, "lat": 37.4888443, "lon": 126.957773, "OSM_최근접_문": "중문", "OSM_문까지_m": 817.0 }, "geometry": { "type": "Point", "coordinates": [ 126.957773, 37.4888443 ] } },
{ "type": "Feature", "properties": { "학교": "숭실대", "node": 10792799832, "lat": 37.4892338, "lon": 126.9575053, "OSM_최근접_문": "중문", "OSM_문까지_m": 767.6 }, "geometry": { "type": "Point", "coordinates": [ 126.9575053, 37.4892338 ] } },
{ "type": "Feature", "properties": { "학교": "숭실대", "node": 2825728935, "lat": 37.4908557, "lon": 126.9572442, "OSM_최근접_문": "중문", "OSM_문까지_m": 662.1 }, "geometry": { "type": "Point", "coordinates": [ 126.9572442, 37.4908557 ] } },
{ "type": "Feature", "properties": { "학교": "숭실대", "node": 4620932585, "lat": 37.494452, "lon": 126.9582104, "OSM_최근접_문": "남문", "OSM_문까지_m": 232.0 }, "geometry": { "type": "Point", "coordinates": [ 126.9582104, 37.494452 ] } },
{ "type": "Feature", "properties": { "학교": "숭실대", "node": 2890319302, "lat": 37.4949881, "lon": 126.9589252, "OSM_최근접_문": "남문", "OSM_문까지_m": 9.3 }, "geometry": { "type": "Point", "coordinates": [ 126.9589252, 37.4949881 ] } },
{ "type": "Feature", "properties": { "학교": "숭실대", "node": 4686503139, "lat": 37.4975288, "lon": 126.9580475, "OSM_최근접_문": "후문", "OSM_문까지_m": 0.0 }, "geometry": { "type": "Point", "coordinates": [ 126.958047500000021, 37.4975288 ] } },
{ "type": "Feature", "properties": { "학교": "숭실대", "node": 8761605888, "lat": 37.4988191, "lon": 126.9578039, "OSM_최근접_문": "후문", "OSM_문까지_m": 480.6 }, "geometry": { "type": "Point", "coordinates": [ 126.957803900000016, 37.4988191 ] } },
{ "type": "Feature", "properties": { "학교": "숭실대", "node": 2824759229, "lat": 37.4899492, "lon": 126.9589506, "OSM_최근접_문": "남문", "OSM_문까지_m": 807.7 }, "geometry": { "type": "Point", "coordinates": [ 126.9589506, 37.4899492 ] } },
{ "type": "Feature", "properties": { "학교": "숭실대", "node": 2824759097, "lat": 37.4918046, "lon": 126.9596106, "OSM_최근접_문": "남문", "OSM_문까지_m": 545.0 }, "geometry": { "type": "Point", "coordinates": [ 126.959610600000019, 37.4918046 ] } },
{ "type": "Feature", "properties": { "학교": "숭실대", "node": 8482687939, "lat": 37.4929133, "lon": 126.9593489, "OSM_최근접_문": "남문", "OSM_문까지_m": 490.7 }, "geometry": { "type": "Point", "coordinates": [ 126.9593489, 37.4929133 ] } },
{ "type": "Feature", "properties": { "학교": "숭실대", "node": 13322228150, "lat": 37.4948503, "lon": 126.9595316, "OSM_최근접_문": "남문", "OSM_문까지_m": 72.2 }, "geometry": { "type": "Point", "coordinates": [ 126.9595316, 37.4948503 ] } },
{ "type": "Feature", "properties": { "학교": "숭실대", "node": 2825711424, "lat": 37.4974076, "lon": 126.9591097, "OSM_최근접_문": "후문", "OSM_문까지_m": 97.0 }, "geometry": { "type": "Point", "coordinates": [ 126.959109699999985, 37.49740760000001 ] } },
{ "type": "Feature", "properties": { "학교": "숭실대", "node": 8857857355, "lat": 37.4989553, "lon": 126.9592229, "OSM_최근접_문": "후문", "OSM_문까지_m": 341.5 }, "geometry": { "type": "Point", "coordinates": [ 126.9592229, 37.4989553 ] } },
{ "type": "Feature", "properties": { "학교": "숭실대", "node": 2824759222, "lat": 37.499609, "lon": 126.9604845, "OSM_최근접_문": "후문", "OSM_문까지_m": 384.7 }, "geometry": { "type": "Point", "coordinates": [ 126.9604845, 37.499609 ] } },
{ "type": "Feature", "properties": { "학교": "숭실대", "node": 2824759203, "lat": 37.5009689, "lon": 126.9602943, "OSM_최근접_문": "후문", "OSM_문까지_m": 530.6 }, "geometry": { "type": "Point", "coordinates": [ 126.9602943, 37.5009689 ] } },
{ "type": "Feature", "properties": { "학교": "숭실대", "node": 4619539867, "lat": 37.4895607, "lon": 126.9614413, "OSM_최근접_문": "남문", "OSM_문까지_m": 921.9 }, "geometry": { "type": "Point", "coordinates": [ 126.9614413, 37.4895607 ] } },
{ "type": "Feature", "properties": { "학교": "숭실대", "node": 13322228135, "lat": 37.4939061, "lon": 126.9601897, "OSM_최근접_문": "남문", "OSM_문까지_m": 294.6 }, "geometry": { "type": "Point", "coordinates": [ 126.960189700000015, 37.4939061 ] } },
{ "type": "Feature", "properties": { "학교": "숭실대", "node": 12785639994, "lat": 37.4952503, "lon": 126.9611947, "OSM_최근접_문": "남문", "OSM_문까지_m": 242.3 }, "geometry": { "type": "Point", "coordinates": [ 126.9611947, 37.4952503 ] } },
{ "type": "Feature", "properties": { "학교": "숭실대", "node": 8761605856, "lat": 37.4967522, "lon": 126.9621963, "OSM_최근접_문": "후문", "OSM_문까지_m": 749.0 }, "geometry": { "type": "Point", "coordinates": [ 126.962196300000016, 37.49675220000001 ] } },
{ "type": "Feature", "properties": { "학교": "숭실대", "node": 8761605867, "lat": 37.4979114, "lon": 126.9609958, "OSM_최근접_문": "후문", "OSM_문까지_m": 558.9 }, "geometry": { "type": "Point", "coordinates": [ 126.96099580000002, 37.4979114 ] } },
{ "type": "Feature", "properties": { "학교": "숭실대", "node": 2824759300, "lat": 37.499174, "lon": 126.9600069, "OSM_최근접_문": "후문", "OSM_문까지_m": 320.1 }, "geometry": { "type": "Point", "coordinates": [ 126.9600069, 37.499174 ] } },
{ "type": "Feature", "properties": { "학교": "숭실대", "node": 4697324250, "lat": 37.5014299, "lon": 126.9627555, "OSM_최근접_문": "후문", "OSM_문까지_m": 900.4 }, "geometry": { "type": "Point", "coordinates": [ 126.9627555, 37.5014299 ] } },
{ "type": "Feature", "properties": { "학교": "숭실대", "node": 5406793565, "lat": 37.4899623, "lon": 126.9624265, "OSM_최근접_문": "남문", "OSM_문까지_m": 819.7 }, "geometry": { "type": "Point", "coordinates": [ 126.9624265, 37.4899623 ] } },
{ "type": "Feature", "properties": { "학교": "숭실대", "node": 2826156923, "lat": 37.4907064, "lon": 126.9620848, "OSM_최근접_문": "남문", "OSM_문까지_m": 907.8 }, "geometry": { "type": "Point", "coordinates": [ 126.9620848, 37.4907064 ] } },
{ "type": "Feature", "properties": { "학교": "숭실대", "node": 8482827916, "lat": 37.4917325, "lon": 126.96382, "OSM_최근접_문": "남문", "OSM_문까지_m": 655.7 }, "geometry": { "type": "Point", "coordinates": [ 126.96382, 37.4917325 ] } },
{ "type": "Feature", "properties": { "학교": "숭실대", "node": 5406793616, "lat": 37.4945479, "lon": 126.9630446, "OSM_최근접_문": "남문", "OSM_문까지_m": 504.9 }, "geometry": { "type": "Point", "coordinates": [ 126.9630446, 37.4945479 ] } },
{ "type": "Feature", "properties": { "학교": "숭실대", "node": 5406793597, "lat": 37.49544, "lon": 126.9624212, "OSM_최근접_문": "남문", "OSM_문까지_m": 615.8 }, "geometry": { "type": "Point", "coordinates": [ 126.9624212, 37.49544 ] } },
{ "type": "Feature", "properties": { "학교": "숭실대", "node": 5406793613, "lat": 37.4977212, "lon": 126.9622136, "OSM_최근접_문": "후문", "OSM_문까지_m": 683.6 }, "geometry": { "type": "Point", "coordinates": [ 126.9622136, 37.4977212 ] } },
{ "type": "Feature", "properties": { "학교": "숭실대", "node": 4697324249, "lat": 37.5010158, "lon": 126.9632038, "OSM_최근접_문": "후문", "OSM_문까지_m": 843.9 }, "geometry": { "type": "Point", "coordinates": [ 126.9632038, 37.5010158 ] } },
{ "type": "Feature", "properties": { "학교": "숭실대", "node": 4697324237, "lat": 37.5017243, "lon": 126.9626617, "OSM_최근접_문": "후문", "OSM_문까지_m": 969.8 }, "geometry": { "type": "Point", "coordinates": [ 126.962661699999984, 37.5017243 ] } },
{ "type": "Feature", "properties": { "학교": "숭실대", "node": 8482789908, "lat": 37.4924411, "lon": 126.9632644, "OSM_최근접_문": "남문", "OSM_문까지_m": 538.9 }, "geometry": { "type": "Point", "coordinates": [ 126.9632644, 37.4924411 ] } },
{ "type": "Feature", "properties": { "학교": "숭실대", "node": 1667060931, "lat": 37.4983483, "lon": 126.9650558, "OSM_최근접_문": "남문", "OSM_문까지_m": 1044.4 }, "geometry": { "type": "Point", "coordinates": [ 126.965055800000016, 37.4983483 ] } },
{ "type": "Feature", "properties": { "학교": "숭실대", "node": 4697324255, "lat": 37.5008805, "lon": 126.9639379, "OSM_최근접_문": "후문", "OSM_문까지_m": 734.2 }, "geometry": { "type": "Point", "coordinates": [ 126.963937900000019, 37.5008805 ] } },
{ "type": "Feature", "properties": { "학교": "숭실대", "node": 5406793629, "lat": 37.4932563, "lon": 126.96546, "OSM_최근접_문": "남문", "OSM_문까지_m": 774.8 }, "geometry": { "type": "Point", "coordinates": [ 126.96546, 37.4932563 ] } },
{ "type": "Feature", "properties": { "학교": "숭실대", "node": 6428306251, "lat": 37.4951825, "lon": 126.9664035, "OSM_최근접_문": "남문", "OSM_문까지_m": 1534.3 }, "geometry": { "type": "Point", "coordinates": [ 126.9664035, 37.4951825 ] } },
{ "type": "Feature", "properties": { "학교": "숭실대", "node": 1667060481, "lat": 37.4967006, "lon": 126.9661276, "OSM_최근접_문": "남문", "OSM_문까지_m": 1313.0 }, "geometry": { "type": "Point", "coordinates": [ 126.9661276, 37.4967006 ] } },
{ "type": "Feature", "properties": { "학교": "숭실대", "node": 2943859173, "lat": 37.4982993, "lon": 126.9651503, "OSM_최근접_문": "남문", "OSM_문까지_m": 1034.5 }, "geometry": { "type": "Point", "coordinates": [ 126.965150300000019, 37.4982993 ] } },
{ "type": "Feature", "properties": { "학교": "숭실대", "node": 1667060965, "lat": 37.4984227, "lon": 126.9660334, "OSM_최근접_문": "남문", "OSM_문까지_m": 1118.0 }, "geometry": { "type": "Point", "coordinates": [ 126.9660334, 37.4984227 ] } },
{ "type": "Feature", "properties": { "학교": "중앙대", "node": 4621496741, "lat": 37.5045737, "lon": 126.9487141, "OSM_최근접_문": "후문", "OSM_문까지_m": 507.2 }, "geometry": { "type": "Point", "coordinates": [ 126.948714100000018, 37.5045737 ] } },
{ "type": "Feature", "properties": { "학교": "중앙대", "node": 4626863240, "lat": 37.5010478, "lon": 126.9502527, "OSM_최근접_문": "후문", "OSM_문까지_m": 682.8 }, "geometry": { "type": "Point", "coordinates": [ 126.9502527, 37.5010478 ] } },
{ "type": "Feature", "properties": { "학교": "중앙대", "node": 11871139989, "lat": 37.5039799, "lon": 126.9496431, "OSM_최근접_문": "후문", "OSM_문까지_m": 444.4 }, "geometry": { "type": "Point", "coordinates": [ 126.9496431, 37.5039799 ] } },
{ "type": "Feature", "properties": { "학교": "중앙대", "node": 1831853297, "lat": 37.5047944, "lon": 126.9497113, "OSM_최근접_문": "후문", "OSM_문까지_m": 468.2 }, "geometry": { "type": "Point", "coordinates": [ 126.949711300000018, 37.5047944 ] } },
{ "type": "Feature", "properties": { "학교": "중앙대", "node": 14136808395, "lat": 37.5052848, "lon": 126.9497357, "OSM_최근접_문": "후문", "OSM_문까지_m": 593.5 }, "geometry": { "type": "Point", "coordinates": [ 126.9497357, 37.5052848 ] } },
{ "type": "Feature", "properties": { "학교": "중앙대", "node": 13363593899, "lat": 37.5075873, "lon": 126.9501654, "OSM_최근접_문": "후문", "OSM_문까지_m": 687.5 }, "geometry": { "type": "Point", "coordinates": [ 126.9501654, 37.5075873 ] } },
{ "type": "Feature", "properties": { "학교": "중앙대", "node": 2825706570, "lat": 37.4996987, "lon": 126.9514313, "OSM_최근접_문": "후문", "OSM_문까지_m": 754.2 }, "geometry": { "type": "Point", "coordinates": [ 126.9514313, 37.49969870000001 ] } },
{ "type": "Feature", "properties": { "학교": "중앙대", "node": 2825730230, "lat": 37.5000179, "lon": 126.9517475, "OSM_최근접_문": "후문", "OSM_문까지_m": 709.0 }, "geometry": { "type": "Point", "coordinates": [ 126.9517475, 37.5000179 ] } },
{ "type": "Feature", "properties": { "학교": "중앙대", "node": 8483442364, "lat": 37.5023674, "lon": 126.9511068, "OSM_최근접_문": "후문", "OSM_문까지_m": 479.0 }, "geometry": { "type": "Point", "coordinates": [ 126.9511068, 37.5023674 ] } },
{ "type": "Feature", "properties": { "학교": "중앙대", "node": 8483442362, "lat": 37.5029745, "lon": 126.9507699, "OSM_최근접_문": "후문", "OSM_문까지_m": 472.5 }, "geometry": { "type": "Point", "coordinates": [ 126.9507699, 37.5029745 ] } },
{ "type": "Feature", "properties": { "학교": "중앙대", "node": 4621486060, "lat": 37.504885, "lon": 126.9519886, "OSM_최근접_문": "후문", "OSM_문까지_m": 155.7 }, "geometry": { "type": "Point", "coordinates": [ 126.9519886, 37.504885 ] } },
{ "type": "Feature", "properties": { "학교": "중앙대", "node": 4621488501, "lat": 37.5054243, "lon": 126.9514481, "OSM_최근접_문": "후문", "OSM_문까지_m": 301.4 }, "geometry": { "type": "Point", "coordinates": [ 126.9514481, 37.5054243 ] } },
{ "type": "Feature", "properties": { "학교": "중앙대", "node": 13363604110, "lat": 37.5081046, "lon": 126.9504429, "OSM_최근접_문": "후문", "OSM_문까지_m": 624.9 }, "geometry": { "type": "Point", "coordinates": [ 126.950442899999985, 37.5081046 ] } },
{ "type": "Feature", "properties": { "학교": "중앙대", "node": 12056780871, "lat": 37.5099627, "lon": 126.951028, "OSM_최근접_문": "후문", "OSM_문까지_m": 770.6 }, "geometry": { "type": "Point", "coordinates": [ 126.951028, 37.5099627 ] } },
{ "type": "Feature", "properties": { "학교": "중앙대", "node": 2825731308, "lat": 37.5003893, "lon": 126.9520757, "OSM_최근접_문": "후문", "OSM_문까지_m": 658.6 }, "geometry": { "type": "Point", "coordinates": [ 126.9520757, 37.5003893 ] } },
{ "type": "Feature", "properties": { "학교": "중앙대", "node": 2824550321, "lat": 37.5026164, "lon": 126.9536873, "OSM_최근접_문": "후문", "OSM_문까지_m": 330.4 }, "geometry": { "type": "Point", "coordinates": [ 126.9536873, 37.5026164 ] } },
{ "type": "Feature", "properties": { "학교": "중앙대", "node": 2825701309, "lat": 37.5033661, "lon": 126.953515, "OSM_최근접_문": "후문", "OSM_문까지_m": 233.9 }, "geometry": { "type": "Point", "coordinates": [ 126.953515, 37.5033661 ] } },
{ "type": "Feature", "properties": { "학교": "중앙대", "node": 4621486051, "lat": 37.5043457, "lon": 126.9532078, "OSM_최근접_문": "후문", "OSM_문까지_m": 115.5 }, "geometry": { "type": "Point", "coordinates": [ 126.953207800000015, 37.5043457 ] } },
{ "type": "Feature", "properties": { "학교": "중앙대", "node": 2824550328, "lat": 37.5050021, "lon": 126.9536058, "OSM_최근접_문": "후문", "OSM_문까지_m": 12.4 }, "geometry": { "type": "Point", "coordinates": [ 126.9536058, 37.5050021 ] } },
{ "type": "Feature", "properties": { "학교": "중앙대", "node": 4621493642, "lat": 37.5073555, "lon": 126.9532505, "OSM_최근접_문": "후문", "OSM_문까지_m": 539.9 }, "geometry": { "type": "Point", "coordinates": [ 126.9532505, 37.5073555 ] } },
{ "type": "Feature", "properties": { "학교": "중앙대", "node": 4621493615, "lat": 37.5084671, "lon": 126.9530099, "OSM_최근접_문": "후문", "OSM_문까지_m": 618.5 }, "geometry": { "type": "Point", "coordinates": [ 126.9530099, 37.5084671 ] } },
{ "type": "Feature", "properties": { "학교": "중앙대", "node": 2829530350, "lat": 37.5106188, "lon": 126.9532809, "OSM_최근접_문": "정문", "OSM_문까지_m": 777.5 }, "geometry": { "type": "Point", "coordinates": [ 126.9532809, 37.51061880000001 ] } },
{ "type": "Feature", "properties": { "학교": "중앙대", "node": 2824550315, "lat": 37.4995806, "lon": 126.9536195, "OSM_최근접_문": "후문", "OSM_문까지_m": 675.9 }, "geometry": { "type": "Point", "coordinates": [ 126.953619500000016, 37.4995806 ] } },
{ "type": "Feature", "properties": { "학교": "중앙대", "node": 2825731322, "lat": 37.5011578, "lon": 126.9536318, "OSM_최근접_문": "후문", "OSM_문까지_m": 497.9 }, "geometry": { "type": "Point", "coordinates": [ 126.9536318, 37.5011578 ] } },
{ "type": "Feature", "properties": { "학교": "중앙대", "node": 4621475837, "lat": 37.5016963, "lon": 126.9535939, "OSM_최근접_문": "후문", "OSM_문까지_m": 437.9 }, "geometry": { "type": "Point", "coordinates": [ 126.9535939, 37.5016963 ] } },
{ "type": "Feature", "properties": { "학교": "중앙대", "node": 8761605951, "lat": 37.5035814, "lon": 126.9545391, "OSM_최근접_문": "후문", "OSM_문까지_m": 205.3 }, "geometry": { "type": "Point", "coordinates": [ 126.9545391, 37.5035814 ] } },
{ "type": "Feature", "properties": { "학교": "중앙대", "node": 2829147711, "lat": 37.5040525, "lon": 126.9538375, "OSM_최근접_문": "후문", "OSM_문까지_m": 123.0 }, "geometry": { "type": "Point", "coordinates": [ 126.9538375, 37.5040525 ] } },
{ "type": "Feature", "properties": { "학교": "중앙대", "node": 4613243829, "lat": 37.5056373, "lon": 126.9547782, "OSM_최근접_문": "중문", "OSM_문까지_m": 253.2 }, "geometry": { "type": "Point", "coordinates": [ 126.9547782, 37.5056373 ] } },
{ "type": "Feature", "properties": { "학교": "중앙대", "node": 4621493631, "lat": 37.5076496, "lon": 126.9553205, "OSM_최근접_문": "후문", "OSM_문까지_m": 471.5 }, "geometry": { "type": "Point", "coordinates": [ 126.9553205, 37.5076496 ] } },
{ "type": "Feature", "properties": { "학교": "중앙대", "node": 2829530337, "lat": 37.5092846, "lon": 126.9548396, "OSM_최근접_문": "정문", "OSM_문까지_m": 497.9 }, "geometry": { "type": "Point", "coordinates": [ 126.9548396, 37.5092846 ] } },
{ "type": "Feature", "properties": { "학교": "중앙대", "node": 4613270035, "lat": 37.5102581, "lon": 126.9553012, "OSM_최근접_문": "정문", "OSM_문까지_m": 494.2 }, "geometry": { "type": "Point", "coordinates": [ 126.9553012, 37.5102581 ] } },
{ "type": "Feature", "properties": { "학교": "중앙대", "node": 4613267682, "lat": 37.5114461, "lon": 126.9541568, "OSM_최근접_문": "정문", "OSM_문까지_m": 708.7 }, "geometry": { "type": "Point", "coordinates": [ 126.954156800000021, 37.5114461 ] } },
{ "type": "Feature", "properties": { "학교": "중앙대", "node": 4654271182, "lat": 37.4982748, "lon": 126.956867, "OSM_최근접_문": "후문", "OSM_문까지_m": 1303.7 }, "geometry": { "type": "Point", "coordinates": [ 126.956867, 37.4982748 ] } },
{ "type": "Feature", "properties": { "학교": "중앙대", "node": 4613243688, "lat": 37.5062686, "lon": 126.9551577, "OSM_최근접_문": "후문", "OSM_문까지_m": 208.6 }, "geometry": { "type": "Point", "coordinates": [ 126.955157700000015, 37.5062686 ] } },
{ "type": "Feature", "properties": { "학교": "중앙대", "node": 4621493630, "lat": 37.5072532, "lon": 126.9553742, "OSM_최근접_문": "후문", "OSM_문까지_m": 426.4 }, "geometry": { "type": "Point", "coordinates": [ 126.9553742, 37.5072532 ] } },
{ "type": "Feature", "properties": { "학교": "중앙대", "node": 11179633109, "lat": 37.509308, "lon": 126.9560773, "OSM_최근접_문": "정문", "OSM_문까지_m": 357.2 }, "geometry": { "type": "Point", "coordinates": [ 126.9560773, 37.509308 ] } },
{ "type": "Feature", "properties": { "학교": "중앙대", "node": 2829530608, "lat": 37.5090727, "lon": 126.9563434, "OSM_최근접_문": "정문", "OSM_문까지_m": 321.7 }, "geometry": { "type": "Point", "coordinates": [ 126.9563434, 37.5090727 ] } },
{ "type": "Feature", "properties": { "학교": "중앙대", "node": 8761605888, "lat": 37.4988191, "lon": 126.9578039, "OSM_최근접_문": "후문", "OSM_문까지_m": 901.6 }, "geometry": { "type": "Point", "coordinates": [ 126.957803900000016, 37.4988191 ] } },
{ "type": "Feature", "properties": { "학교": "중앙대", "node": 2829530627, "lat": 37.506534, "lon": 126.9571048, "OSM_최근접_문": "중문", "OSM_문까지_m": 54.4 }, "geometry": { "type": "Point", "coordinates": [ 126.9571048, 37.506534 ] } },
{ "type": "Feature", "properties": { "학교": "중앙대", "node": 2829530668, "lat": 37.5078353, "lon": 126.9588882, "OSM_최근접_문": "정문", "OSM_문까지_m": 157.0 }, "geometry": { "type": "Point", "coordinates": [ 126.958888200000018, 37.5078353 ] } },
{ "type": "Feature", "properties": { "학교": "중앙대", "node": 4613243680, "lat": 37.5086047, "lon": 126.9571096, "OSM_최근접_문": "정문", "OSM_문까지_m": 233.4 }, "geometry": { "type": "Point", "coordinates": [ 126.9571096, 37.5086047 ] } },
{ "type": "Feature", "properties": { "학교": "중앙대", "node": 4613243675, "lat": 37.5096049, "lon": 126.9580855, "OSM_최근접_문": "정문", "OSM_문까지_m": 476.4 }, "geometry": { "type": "Point", "coordinates": [ 126.9580855, 37.5096049 ] } },
{ "type": "Feature", "properties": { "학교": "중앙대", "node": 4613249965, "lat": 37.5113379, "lon": 126.9572744, "OSM_최근접_문": "정문", "OSM_문까지_m": 700.7 }, "geometry": { "type": "Point", "coordinates": [ 126.957274400000017, 37.5113379 ] } },
{ "type": "Feature", "properties": { "학교": "중앙대", "node": 2824759242, "lat": 37.4981834, "lon": 126.9593311, "OSM_최근접_문": "후문", "OSM_문까지_m": 1189.8 }, "geometry": { "type": "Point", "coordinates": [ 126.9593311, 37.4981834 ] } },
{ "type": "Feature", "properties": { "학교": "중앙대", "node": 8857857355, "lat": 37.4989553, "lon": 126.9592229, "OSM_최근접_문": "후문", "OSM_문까지_m": 1040.8 }, "geometry": { "type": "Point", "coordinates": [ 126.9592229, 37.4989553 ] } },
{ "type": "Feature", "properties": { "학교": "중앙대", "node": 10232790207, "lat": 37.5062923, "lon": 126.9597652, "OSM_최근접_문": "정문", "OSM_문까지_m": 270.6 }, "geometry": { "type": "Point", "coordinates": [ 126.9597652, 37.5062923 ] } },
{ "type": "Feature", "properties": { "학교": "중앙대", "node": 4613243821, "lat": 37.5067933, "lon": 126.9601, "OSM_최근접_문": "정문", "OSM_문까지_m": 207.4 }, "geometry": { "type": "Point", "coordinates": [ 126.9601, 37.5067933 ] } },
{ "type": "Feature", "properties": { "학교": "중앙대", "node": 4613243677, "lat": 37.50854, "lon": 126.9596098, "OSM_최근접_문": "정문", "OSM_문까지_m": 259.4 }, "geometry": { "type": "Point", "coordinates": [ 126.9596098, 37.50854 ] } },
{ "type": "Feature", "properties": { "학교": "중앙대", "node": 2829530641, "lat": 37.5101738, "lon": 126.958945, "OSM_최근접_문": "정문", "OSM_문까지_m": 504.2 }, "geometry": { "type": "Point", "coordinates": [ 126.958945, 37.5101738 ] } },
{ "type": "Feature", "properties": { "학교": "중앙대", "node": 10579158603, "lat": 37.5116335, "lon": 126.9596109, "OSM_최근접_문": "정문", "OSM_문까지_m": 960.7 }, "geometry": { "type": "Point", "coordinates": [ 126.9596109, 37.5116335 ] } },
{ "type": "Feature", "properties": { "학교": "중앙대", "node": 2824759222, "lat": 37.499609, "lon": 126.9604845, "OSM_최근접_문": "후문", "OSM_문까지_m": 1189.1 }, "geometry": { "type": "Point", "coordinates": [ 126.9604845, 37.499609 ] } },
{ "type": "Feature", "properties": { "학교": "중앙대", "node": 2824759203, "lat": 37.5009689, "lon": 126.9602943, "OSM_최근접_문": "정문", "OSM_문까지_m": 1077.2 }, "geometry": { "type": "Point", "coordinates": [ 126.9602943, 37.5009689 ] } },
{ "type": "Feature", "properties": { "학교": "중앙대", "node": 13816446695, "lat": 37.5028575, "lon": 126.9606931, "OSM_최근접_문": "정문", "OSM_문까지_m": 855.1 }, "geometry": { "type": "Point", "coordinates": [ 126.9606931, 37.5028575 ] } },
{ "type": "Feature", "properties": { "학교": "중앙대", "node": 12864823352, "lat": 37.5037302, "lon": 126.9608871, "OSM_최근접_문": "정문", "OSM_문까지_m": 754.6 }, "geometry": { "type": "Point", "coordinates": [ 126.960887099999979, 37.5037302 ] } },
{ "type": "Feature", "properties": { "학교": "중앙대", "node": 10107993115, "lat": 37.5068106, "lon": 126.9616628, "OSM_최근접_문": "정문", "OSM_문까지_m": 393.9 }, "geometry": { "type": "Point", "coordinates": [ 126.9616628, 37.5068106 ] } },
{ "type": "Feature", "properties": { "학교": "중앙대", "node": 4613243679, "lat": 37.5076214, "lon": 126.9605607, "OSM_최근접_문": "정문", "OSM_문까지_m": 203.4 }, "geometry": { "type": "Point", "coordinates": [ 126.9605607, 37.5076214 ] } },
{ "type": "Feature", "properties": { "학교": "중앙대", "node": 436883256, "lat": 37.5082316, "lon": 126.9612307, "OSM_최근접_문": "정문", "OSM_문까지_m": 297.6 }, "geometry": { "type": "Point", "coordinates": [ 126.9612307, 37.5082316 ] } },
{ "type": "Feature", "properties": { "학교": "중앙대", "node": 10232790156, "lat": 37.5093825, "lon": 126.9606748, "OSM_최근접_문": "정문", "OSM_문까지_m": 444.9 }, "geometry": { "type": "Point", "coordinates": [ 126.960674800000021, 37.5093825 ] } },
{ "type": "Feature", "properties": { "학교": "중앙대", "node": 4613243640, "lat": 37.5115603, "lon": 126.9610049, "OSM_최근접_문": "정문", "OSM_문까지_m": 679.0 }, "geometry": { "type": "Point", "coordinates": [ 126.9610049, 37.5115603 ] } },
{ "type": "Feature", "properties": { "학교": "중앙대", "node": 4697324255, "lat": 37.5008805, "lon": 126.9639379, "OSM_최근접_문": "정문", "OSM_문까지_m": 1455.0 }, "geometry": { "type": "Point", "coordinates": [ 126.963937900000019, 37.5008805 ] } },
{ "type": "Feature", "properties": { "학교": "중앙대", "node": 4697324237, "lat": 37.5017243, "lon": 126.9626617, "OSM_최근접_문": "정문", "OSM_문까지_m": 1491.6 }, "geometry": { "type": "Point", "coordinates": [ 126.962661699999984, 37.5017243 ] } },
{ "type": "Feature", "properties": { "학교": "중앙대", "node": 12864823363, "lat": 37.5039299, "lon": 126.9619801, "OSM_최근접_문": "정문", "OSM_문까지_m": 918.7 }, "geometry": { "type": "Point", "coordinates": [ 126.9619801, 37.5039299 ] } },
{ "type": "Feature", "properties": { "학교": "중앙대", "node": 4611246549, "lat": 37.5068528, "lon": 126.9629983, "OSM_최근접_문": "정문", "OSM_문까지_m": 479.6 }, "geometry": { "type": "Point", "coordinates": [ 126.9629983, 37.5068528 ] } },
{ "type": "Feature", "properties": { "학교": "중앙대", "node": 4612938745, "lat": 37.5087472, "lon": 126.961892, "OSM_최근접_문": "정문", "OSM_문까지_m": 406.6 }, "geometry": { "type": "Point", "coordinates": [ 126.961892, 37.5087472 ] } },
{ "type": "Feature", "properties": { "학교": "중앙대", "node": 6964092884, "lat": 37.5095024, "lon": 126.9630769, "OSM_최근접_문": "정문", "OSM_문까지_m": 539.1 }, "geometry": { "type": "Point", "coordinates": [ 126.9630769, 37.5095024 ] } },
{ "type": "Feature", "properties": { "학교": "중앙대", "node": 4611250951, "lat": 37.5012172, "lon": 126.964266, "OSM_최근접_문": "정문", "OSM_문까지_m": 1406.8 }, "geometry": { "type": "Point", "coordinates": [ 126.964266, 37.501217200000013 ] } },
{ "type": "Feature", "properties": { "학교": "중앙대", "node": 4611263521, "lat": 37.5018422, "lon": 126.9643006, "OSM_최근접_문": "정문", "OSM_문까지_m": 1337.0 }, "geometry": { "type": "Point", "coordinates": [ 126.964300600000016, 37.5018422 ] } },
{ "type": "Feature", "properties": { "학교": "중앙대", "node": 4611303880, "lat": 37.5031809, "lon": 126.9643982, "OSM_최근접_문": "정문", "OSM_문까지_m": 1187.9 }, "geometry": { "type": "Point", "coordinates": [ 126.9643982, 37.5031809 ] } },
{ "type": "Feature", "properties": { "학교": "중앙대", "node": 6215701774, "lat": 37.5059788, "lon": 126.9654997, "OSM_최근접_문": "정문", "OSM_문까지_m": 1022.1 }, "geometry": { "type": "Point", "coordinates": [ 126.9654997, 37.5059788 ] } },
{ "type": "Feature", "properties": { "학교": "중앙대", "node": 4612824441, "lat": 37.5071239, "lon": 126.9645261, "OSM_최근접_문": "정문", "OSM_문까지_m": 684.8 }, "geometry": { "type": "Point", "coordinates": [ 126.9645261, 37.5071239 ] } },
{ "type": "Feature", "properties": { "학교": "중앙대", "node": 4611246540, "lat": 37.508241, "lon": 126.964237, "OSM_최근접_문": "정문", "OSM_문까지_m": 581.4 }, "geometry": { "type": "Point", "coordinates": [ 126.964237, 37.508241 ] } },
{ "type": "Feature", "properties": { "학교": "중앙대", "node": 13675095847, "lat": 37.5088823, "lon": 126.9645738, "OSM_최근접_문": "정문", "OSM_문까지_m": 615.0 }, "geometry": { "type": "Point", "coordinates": [ 126.9645738, 37.5088823 ] } },
{ "type": "Feature", "properties": { "학교": "중앙대", "node": 4611290232, "lat": 37.506626, "lon": 126.9656523, "OSM_최근접_문": "정문", "OSM_문까지_m": 768.5 }, "geometry": { "type": "Point", "coordinates": [ 126.9656523, 37.506626 ] } },
{ "type": "Feature", "properties": { "학교": "중앙대", "node": 4612824445, "lat": 37.5072326, "lon": 126.9656758, "OSM_최근접_문": "정문", "OSM_문까지_m": 710.7 }, "geometry": { "type": "Point", "coordinates": [ 126.9656758, 37.5072326 ] } }
]
}
