{
"type": "FeatureCollection",
"name": "osm_gates",
"crs": { "type": "name", "properties": { "name": "urn:ogc:def:crs:OGC:1.3:CRS84" } },
"features": [
{ "type": "Feature", "properties": { "학교": "숭실대", "문": "정문", "lat": 37.495745390517627, "lon": 126.95467427206805, "osm_way_id": 1382626815, "highway": "pedestrian", "seed_distance_m": 29.3, "coordinate_source": "OSM path-campus boundary intersection", "source_url": "https://www.openstreetmap.org/way/1382626815" }, "geometry": { "type": "Point", "coordinates": [ 126.954674272068047, 37.495745390517627 ] } },
{ "type": "Feature", "properties": { "학교": "숭실대", "문": "후문", "lat": 37.497483440717957, "lon": 126.95801714022321, "osm_way_id": 1381930919, "highway": "service", "seed_distance_m": 3.2, "coordinate_source": "OSM path-campus boundary intersection", "source_url": "https://www.openstreetmap.org/way/1381930919" }, "geometry": { "type": "Point", "coordinates": [ 126.958017140223205, 37.497483440717957 ] } },
{ "type": "Feature", "properties": { "학교": "숭실대", "문": "남문", "lat": 37.495104710710656, "lon": 126.95892993894203, "osm_way_id": 1381098993, "highway": "service", "seed_distance_m": 17.9, "coordinate_source": "OSM path-campus boundary intersection", "source_url": "https://www.openstreetmap.org/way/1381098993" }, "geometry": { "type": "Point", "coordinates": [ 126.958929938942035, 37.495104710710656 ] } },
{ "type": "Feature", "properties": { "학교": "숭실대", "문": "북문", "lat": 37.4979268, "lon": 126.9555384, "osm_way_id": 367389875, "highway": "service", "seed_distance_m": 5.1, "coordinate_source": "OSM path-campus boundary intersection", "source_url": "https://www.openstreetmap.org/way/367389875" }, "geometry": { "type": "Point", "coordinates": [ 126.9555384, 37.4979268 ] } },
{ "type": "Feature", "properties": { "학교": "숭실대", "문": "중문", "lat": 37.495439812574567, "lon": 126.95670420300216, "osm_way_id": 1381930941, "highway": "service", "seed_distance_m": 2.3, "coordinate_source": "OSM path-campus boundary intersection", "source_url": "https://www.openstreetmap.org/way/1381930941" }, "geometry": { "type": "Point", "coordinates": [ 126.956704203002161, 37.495439812574567 ] } },
{ "type": "Feature", "properties": { "학교": "중앙대", "문": "정문", "lat": 37.506796589972019, "lon": 126.95850503509976, "osm_way_id": 285364022, "highway": "service", "seed_distance_m": 5.4, "coordinate_source": "OSM path-campus boundary intersection", "source_url": "https://www.openstreetmap.org/way/285364022" }, "geometry": { "type": "Point", "coordinates": [ 126.958505035099762, 37.506796589972019 ] } },
{ "type": "Feature", "properties": { "학교": "중앙대", "문": "중문", "lat": 37.505974624835311, "lon": 126.9569929603533, "osm_way_id": 466546144, "highway": "service", "seed_distance_m": 20.6, "coordinate_source": "OSM path-campus boundary intersection", "source_url": "https://www.openstreetmap.org/way/466546144" }, "geometry": { "type": "Point", "coordinates": [ 126.956992960353304, 37.505974624835311 ] } },
{ "type": "Feature", "properties": { "학교": "중앙대", "문": "후문", "lat": 37.504956694088492, "lon": 126.95390881552041, "osm_way_id": 285364024, "highway": "service", "seed_distance_m": 14.3, "coordinate_source": "OSM path-campus boundary intersection", "source_url": "https://www.openstreetmap.org/way/285364024" }, "geometry": { "type": "Point", "coordinates": [ 126.953908815520407, 37.504956694088492 ] } }
]
}
