{"type": "FeatureCollection", "features": [{"type": "Feature", "properties": {"univ_id": "17384594", "univ_name": "KAIST 서울캠퍼스", "osm_ids": [416468238]}, "geometry": {"type": "Polygon", "coordinates": [[[127.0450939, 37.5918494], [127.0451922, 37.5924794], [127.0452592, 37.5928303], [127.0453145, 37.593013], [127.0453113, 37.5930926], [127.0454693, 37.5934406], [127.0458304, 37.5935464], [127.0459065, 37.5940485], [127.0457904, 37.5954761], [127.0466325, 37.5958404], [127.0471871, 37.5956116], [127.0474219, 37.5952365], [127.0474602, 37.5944344], [127.0476447, 37.5932965], [127.0478114, 37.5930595], [127.0480988, 37.5916652], [127.0468425, 37.591734], [127.0450939, 37.5918494]]]}}, {"type": "Feature", "properties": {"univ_id": "10148561", "univ_name": "광운대학교", "osm_ids": [804478563, 804478564, 804478565, 804483798]}, "geometry": {"type": "MultiPolygon", "coordinates": [[[[127.0597997, 37.6205701], [127.0599802, 37.6205694], [127.0600255, 37.6204452], [127.0607443, 37.6205106], [127.0608975, 37.6204098], [127.0610732, 37.6203595], [127.0610944, 37.6202386], [127.0611379, 37.6199655], [127.0611685, 37.6195642], [127.0612144, 37.6194023], [127.0613264, 37.6190677], [127.0614356, 37.6188802], [127.0609187, 37.6188679], [127.0607883, 37.6189976], [127.0602094, 37.6190847], [127.0600432, 37.6189601], [127.0599902, 37.6189204], [127.0598017, 37.6188812], [127.0597487, 37.6188118], [127.0597381, 37.6187383], [127.0595604, 37.6189327], [127.0590646, 37.6186746], [127.0587107, 37.6184709], [127.0586055, 37.6185932], [127.0587311, 37.618724], [127.058449, 37.6189855], [127.0581771, 37.619157], [127.0581091, 37.6193051], [127.0580649, 37.6193365], [127.0581238, 37.6194223], [127.05913, 37.620882], [127.0593916, 37.6207178], [127.0597997, 37.6205701]]], [[[127.0554362, 37.6206305], [127.055007, 37.6199719], [127.0547, 37.6201], [127.0545403, 37.620724], [127.0550178, 37.620775], [127.0554362, 37.6206305]]], [[[127.0567612, 37.6217715], [127.0569196, 37.6216762], [127.0574222, 37.6208812], [127.0575273, 37.6206785], [127.0573131, 37.6204855], [127.0572751, 37.6203795], [127.0578208, 37.6202544], [127.0577778, 37.6200896], [127.0583664, 37.6199361], [127.0578097, 37.6192249], [127.0574669, 37.6194754], [127.0573124, 37.6195883], [127.0573017, 37.6196083], [127.0571488, 37.61973], [127.0570174, 37.6198038], [127.0567806, 37.619863], [127.0569765, 37.620357], [127.0567377, 37.6213555], [127.0566865, 37.6213508], [127.0558678, 37.621276], [127.0558145, 37.6214557], [127.0563003, 37.621573], [127.0565673, 37.6218938], [127.056663, 37.6220088], [127.0568373, 37.6219076], [127.0567612, 37.6217715]]], [[[127.0566559, 37.6221469], [127.0563223, 37.6220856], [127.0562985, 37.6221668], [127.0566321, 37.6222281], [127.0566559, 37.6221469]]]]}}, {"type": "Feature", "properties": {"univ_id": "8262964", "univ_name": "덕성여자대학교", "osm_ids": [381500241]}, "geometry": {"type": "Polygon", "coordinates": [[[127.0162265, 37.6491089], [127.015794, 37.6492331], [127.0156619, 37.6492761], [127.0155808, 37.6493133], [127.0152676, 37.6495203], [127.0154755, 37.6496467], [127.0153373, 37.6499514], [127.0152944, 37.650262], [127.0152891, 37.6503677], [127.0151094, 37.6503565], [127.0150651, 37.6506623], [127.014699, 37.6506501], [127.0147141, 37.650819], [127.0147379, 37.6509527], [127.0148532, 37.6515776], [127.0148978, 37.6518973], [127.0148841, 37.6520676], [127.0148525, 37.6522471], [127.0147117, 37.6526771], [127.0146574, 37.6529665], [127.0146783, 37.6535019], [127.0146842, 37.6539258], [127.0160589, 37.6540999], [127.0163548, 37.653672], [127.0169467, 37.6528672], [127.0171968, 37.6525831], [127.0175931, 37.6522036], [127.0182569, 37.651618], [127.0187424, 37.6511773], [127.0189878, 37.6509602], [127.0193848, 37.65063], [127.0196034, 37.6504627], [127.0197871, 37.6503454], [127.0199692, 37.6502533], [127.0201325, 37.6501832], [127.0201358, 37.6500444], [127.0200741, 37.6500168], [127.0199625, 37.6499653], [127.0199539, 37.6498765], [127.0199092, 37.6498203], [127.0198582, 37.649789], [127.0197844, 37.64978], [127.0195162, 37.6497985], [127.0184045, 37.6499945], [127.0183464, 37.6499674], [127.0182834, 37.6499381], [127.0183776, 37.6495203], [127.0184373, 37.6493637], [127.0185077, 37.6492166], [127.0186291, 37.6489633], [127.0184516, 37.6489633], [127.0178452, 37.648957], [127.0173819, 37.6489746], [127.0169759, 37.6490373], [127.0169279, 37.6489329], [127.0162265, 37.6491089]]]}}, {"type": "Feature", "properties": {"univ_id": "11333604", "univ_name": "명지대학교 인문캠퍼스", "osm_ids": [462886441]}, "geometry": {"type": "Polygon", "coordinates": [[[126.9219139, 37.5791522], [126.9211896, 37.5800696], [126.9209981, 37.5802282], [126.9219059, 37.5805329], [126.9224605, 37.5805915], [126.9224605, 37.5806794], [126.9228487, 37.5808161], [126.9228487, 37.5809089], [126.9229041, 37.5811726], [126.9238531, 37.5813191], [126.9239948, 37.5810896], [126.9248082, 37.5811726], [126.9249931, 37.5803034], [126.9229887, 37.5789134], [126.9228103, 37.5787897], [126.9225632, 37.5786183], [126.922554, 37.5786259], [126.9222241, 37.5788971], [126.9219139, 37.5791522]]]}}, {"type": "Feature", "properties": {"univ_id": "8356870", "univ_name": "상명대학교 서울캠퍼스", "osm_ids": [221502708]}, "geometry": {"type": "Polygon", "coordinates": [[[126.9565304, 37.6022772], [126.9565337, 37.6019809], [126.9562299, 37.6019729], [126.9562132, 37.6018089], [126.9560663, 37.6017243], [126.9557891, 37.6017745], [126.9556021, 37.6018909], [126.9554519, 37.6019147], [126.9553684, 37.6019042], [126.955148, 37.601801], [126.9551046, 37.6017825], [126.9552081, 37.6016952], [126.9554252, 37.6015894], [126.955729, 37.6014544], [126.9558125, 37.6014227], [126.9556823, 37.6013116], [126.9556122, 37.6012349], [126.9554986, 37.6012825], [126.9554319, 37.6012111], [126.955295, 37.6012851], [126.9550545, 37.6012799], [126.9548575, 37.601055], [126.9549644, 37.6009915], [126.9544902, 37.6005973], [126.953542, 37.6008143], [126.9531346, 37.6015312], [126.9531046, 37.6029438], [126.9534218, 37.603502], [126.9534785, 37.6041924], [126.9546171, 37.6042003], [126.9552115, 37.6044622], [126.9554947, 37.6043511], [126.9555778, 37.6042842], [126.9558473, 37.6042618], [126.955996, 37.6042433], [126.9561977, 37.6042256], [126.9563567, 37.6042495], [126.9567129, 37.6043912], [126.9568604, 37.6044771], [126.9570163, 37.6044639], [126.9571581, 37.6044067], [126.9572817, 37.6041845], [126.957462, 37.6039199], [126.9575588, 37.6037744], [126.9574853, 37.6034782], [126.9575688, 37.60333], [126.9572349, 37.6032295], [126.9572015, 37.6031448], [126.9570346, 37.6030337], [126.9569511, 37.6028565], [126.956891, 37.6027004], [126.9565705, 37.602547], [126.956527, 37.6024571], [126.9564102, 37.6024227], [126.9565304, 37.6022772]]]}}, {"type": "Feature", "properties": {"univ_id": "7946584", "univ_name": "서경대학교", "osm_ids": [380851207]}, "geometry": {"type": "Polygon", "coordinates": [[[127.0111492, 37.6160368], [127.0111249, 37.6162042], [127.0110659, 37.6163369], [127.0114848, 37.6163899], [127.0127144, 37.615957], [127.0134839, 37.6156551], [127.0139249, 37.6155735], [127.014353, 37.6152215], [127.0143865, 37.6150027], [127.0143785, 37.6148603], [127.0143366, 37.6148193], [127.01428, 37.6147411], [127.0141763, 37.6145977], [127.0140831, 37.6144689], [127.0140291, 37.6143944], [127.0140603, 37.6143802], [127.0139303, 37.6142005], [127.013924, 37.6142034], [127.0138963, 37.6141651], [127.0138665, 37.6141787], [127.0138391, 37.6141408], [127.0137991, 37.6140763], [127.0136636, 37.6141337], [127.0134826, 37.613883], [127.0133002, 37.6136546], [127.0129904, 37.6135143], [127.0129213, 37.613491], [127.0127859, 37.6134437], [127.0126458, 37.6136307], [127.0125814, 37.6136822], [127.012458, 37.6137672], [127.0123561, 37.6138575], [127.01223, 37.6139913], [127.0121884, 37.6140519], [127.0121616, 37.6141177], [127.0121224, 37.6142406], [127.0120543, 37.6143727], [127.0119666, 37.6144589], [127.0117293, 37.6145862], [127.0113985, 37.6147711], [127.0113623, 37.6148231], [127.0113435, 37.6148911], [127.0111492, 37.6160368]]]}}, {"type": "Feature", "properties": {"univ_id": "9108449", "univ_name": "서울과학기술대학교", "osm_ids": [380910936]}, "geometry": {"type": "Polygon", "coordinates": [[[127.0753907, 37.6308286], [127.0760787, 37.6327085], [127.0762449, 37.6332693], [127.0760867, 37.6333532], [127.0764582, 37.6344939], [127.076375, 37.6346659], [127.0752579, 37.6350079], [127.0755234, 37.6361655], [127.0759275, 37.6364761], [127.0761819, 37.6365277], [127.0764112, 37.6364607], [127.0766624, 37.6361278], [127.0768877, 37.6359664], [127.0773581, 37.6356918], [127.0777631, 37.6357258], [127.079249, 37.6361995], [127.0797523, 37.6361788], [127.0801744, 37.6360402], [127.0806625, 37.6358703], [127.0809808, 37.6356987], [127.0813814, 37.635386], [127.0817462, 37.6350121], [127.0821324, 37.6345172], [127.0826367, 37.633744], [127.0828271, 37.6334488], [127.0829505, 37.6331811], [127.0830068, 37.6328774], [127.0829129, 37.6321743], [127.0828325, 37.6315923], [127.0828506, 37.6314871], [127.0830001, 37.6313671], [127.0830208, 37.6313034], [127.0831141, 37.630989], [127.0824744, 37.631057], [127.0824261, 37.631041], [127.0823912, 37.6310071], [127.0821083, 37.6300926], [127.0820197, 37.6297909], [127.0817623, 37.6288903], [127.081667, 37.6284527], [127.0815772, 37.6282062], [127.08149, 37.6282105], [127.081081, 37.6285408], [127.079216, 37.6285266], [127.0775366, 37.6285165], [127.0770319, 37.6292135], [127.0766245, 37.629861], [127.0766084, 37.6299534], [127.0766325, 37.6300044], [127.076709, 37.6300639], [127.0766463, 37.6301639], [127.0765802, 37.6302827], [127.0764904, 37.6302816], [127.0764273, 37.6302954], [127.0763542, 37.6303363], [127.0760961, 37.6306279], [127.0759083, 37.6307054], [127.0754738, 37.6307776], [127.0753907, 37.6308286]]]}}, {"type": "Feature", "properties": {"univ_id": "9879420", "univ_name": "서울여자대학교 서울캠퍼스", "osm_ids": [380920082]}, "geometry": {"type": "Polygon", "coordinates": [[[127.0882146, 37.6290429], [127.0883318, 37.6293896], [127.0884237, 37.6296612], [127.0884694, 37.6297966], [127.0885117, 37.6299216], [127.0889303, 37.6305205], [127.0891217, 37.6310964], [127.0892522, 37.6314891], [127.0897725, 37.6315444], [127.0903358, 37.6313957], [127.0901748, 37.6298238], [127.091001, 37.6297685], [127.0918321, 37.6292337], [127.092276, 37.628808], [127.0930276, 37.6280872], [127.0936506, 37.6274065], [127.0935584, 37.6273439], [127.0940597, 37.6263562], [127.0942979, 37.6263821], [127.0944965, 37.6263461], [127.0946522, 37.626236], [127.0940487, 37.6258892], [127.0934386, 37.625561], [127.0932023, 37.6254367], [127.0931164, 37.6255758], [127.0925893, 37.6264813], [127.0925653, 37.6265226], [127.0919629, 37.6272698], [127.0909495, 37.6273844], [127.0906693, 37.6273252], [127.0905632, 37.6269974], [127.0903844, 37.626445], [127.0902723, 37.6263562], [127.0899209, 37.6261279], [127.0895532, 37.6259197], [127.0893897, 37.625683], [127.0891282, 37.62545], [127.0890165, 37.6252653], [127.088921, 37.6251141], [127.0888856, 37.625058], [127.0886291, 37.6251645], [127.0883716, 37.6252614], [127.0883249, 37.6253427], [127.088834, 37.626763], [127.0888471, 37.6268018], [127.0886676, 37.6268988], [127.0881435, 37.6271667], [127.0881229, 37.6272238], [127.0880027, 37.6275804], [127.0883276, 37.6285089], [127.0882812, 37.6287007], [127.0882146, 37.6290429]]]}}, {"type": "Feature", "properties": {"univ_id": "7949668", "univ_name": "세종대학교", "osm_ids": [965940829]}, "geometry": {"type": "Polygon", "coordinates": [[[127.0724574, 37.5528894], [127.0738823, 37.5536312], [127.0744117, 37.5529723], [127.0748706, 37.5525249], [127.074799, 37.5520116], [127.0749786, 37.5518814], [127.075178, 37.5517368], [127.0755633, 37.5514643], [127.0757745, 37.5512858], [127.0759402, 37.5511612], [127.0761166, 37.5511014], [127.07597, 37.5506795], [127.0755333, 37.5498754], [127.0751342, 37.5491643], [127.0750453, 37.549192], [127.0749834, 37.549081], [127.0749405, 37.5488812], [127.0749065, 37.5487483], [127.0748552, 37.5486671], [127.0746122, 37.5482511], [127.0742109, 37.5482575], [127.0742039, 37.5481464], [127.0740058, 37.5481569], [127.0740206, 37.5483328], [127.0736853, 37.5483372], [127.0736707, 37.5479847], [127.0736135, 37.5479859], [127.0731096, 37.5479968], [127.0729929, 37.5480005], [127.0732192, 37.5482555], [127.0732495, 37.5482961], [127.0732819, 37.5483395], [127.0732861, 37.5483745], [127.073309, 37.548782], [127.0733381, 37.5489598], [127.0733375, 37.5490574], [127.0733212, 37.5491325], [127.0733182, 37.5491373], [127.0733155, 37.5491425], [127.0732987, 37.5491892], [127.0732948, 37.549187], [127.0732775, 37.5492126], [127.0732397, 37.5492683], [127.0733274, 37.5493052], [127.0733551, 37.5493169], [127.0733437, 37.5493322], [127.0732481, 37.5494619], [127.0732466, 37.5494639], [127.0731651, 37.5495732], [127.0732718, 37.5496456], [127.0733852, 37.5497226], [127.0729856, 37.5500607], [127.0730589, 37.5501007], [127.0729293, 37.5502136], [127.0727219, 37.5503941], [127.07325, 37.550793], [127.0731227, 37.550903], [127.0733437, 37.5510731], [127.0730626, 37.5513198], [127.0730684, 37.5519605], [127.0729725, 37.5520513], [127.0728142, 37.5520686], [127.0727509, 37.552127], [127.0726296, 37.5521333], [127.0725163, 37.5522494], [127.0724044, 37.5523719], [127.0723369, 37.5528293], [127.0724574, 37.5528894]]]}}, {"type": "Feature", "properties": {"univ_id": "7813439", "univ_name": "숙명여자대학교", "osm_ids": [20613615]}, "geometry": {"type": "MultiPolygon", "coordinates": [[[[126.9657291, 37.5448462], [126.9667669, 37.5447485], [126.9667669, 37.5444193], [126.9665853, 37.5441673], [126.9662675, 37.5438639], [126.9658363, 37.5436243], [126.9649887, 37.5435556], [126.9649702, 37.5437096], [126.9642438, 37.5436759], [126.9635558, 37.5436713], [126.96355, 37.5438631], [126.9637627, 37.5441617], [126.9638323, 37.5444851], [126.963809, 37.544694], [126.9638355, 37.5448173], [126.963919, 37.5449195], [126.9640755, 37.5449955], [126.9646539, 37.5450985], [126.9651432, 37.5451128], [126.9653057, 37.5450946], [126.965479, 37.5450752], [126.9654478, 37.5449771], [126.9657291, 37.5448462]]], [[[126.9632643, 37.5459776], [126.9633989, 37.5464268], [126.9641711, 37.5468894], [126.964977, 37.5468828], [126.9650206, 37.5471684], [126.9659561, 37.5471039], [126.9658139, 37.5464321], [126.9659036, 37.5464286], [126.9659237, 37.5462605], [126.966043, 37.5460103], [126.9665974, 37.5460079], [126.9666712, 37.5456881], [126.9663062, 37.5455432], [126.9661846, 37.5456128], [126.9659664, 37.5456174], [126.9658524, 37.5456595], [126.9654806, 37.5456519], [126.9654062, 37.5456802], [126.9653117, 37.5456499], [126.9652893, 37.5455822], [126.9653309, 37.5455661], [126.9652688, 37.5454282], [126.9652951, 37.5454114], [126.9655953, 37.5453506], [126.9655361, 37.5452028], [126.9652276, 37.5452346], [126.9649563, 37.5452311], [126.9646657, 37.5452147], [126.9642036, 37.5451372], [126.9638974, 37.5450917], [126.9638108, 37.545099], [126.9635776, 37.5451736], [126.9634892, 37.5451866], [126.9632578, 37.5456125], [126.9632643, 37.5459776]]]]}}, {"type": "Feature", "properties": {"univ_id": "11244281", "univ_name": "한국외국어대학교 서울캠퍼스", "osm_ids": [7027282]}, "geometry": {"type": "Polygon", "coordinates": [[[127.0578714, 37.5985749], [127.0582309, 37.5985581], [127.0584713, 37.5985247], [127.0587708, 37.5984657], [127.0607482, 37.5975598], [127.0607783, 37.5974104], [127.0605109, 37.597001], [127.0608606, 37.5968601], [127.0606799, 37.5965915], [127.060346, 37.5967254], [127.0594849, 37.5954699], [127.0592631, 37.5955657], [127.0589345, 37.595672], [127.0588369, 37.5956733], [127.0586257, 37.5956568], [127.0583477, 37.595635], [127.0583361, 37.59571], [127.058287, 37.5960097], [127.0570703, 37.595903], [127.0570552, 37.5959629], [127.056914, 37.596493], [127.0568432, 37.5967634], [127.0569384, 37.5971619], [127.0569874, 37.59735], [127.0570095, 37.5975189], [127.0570095, 37.5976932], [127.0569438, 37.5981185], [127.0570034, 37.5982595], [127.0571137, 37.5983991], [127.0572525, 37.5984537], [127.0574115, 37.5985021], [127.0575965, 37.5985604], [127.0578714, 37.5985749]]]}}, {"type": "Feature", "properties": {"univ_id": "11272875", "univ_name": "한성대학교", "osm_ids": [223434839, 1160652007, 1160652009, 1160683105]}, "geometry": {"type": "MultiPolygon", "coordinates": [[[[127.0087251, 37.5836451], [127.0096999, 37.5836293], [127.0098005, 37.5832026], [127.0111398, 37.58314], [127.0111588, 37.5825906], [127.0111616, 37.5823637], [127.0111747, 37.5824038], [127.0111844, 37.5824047], [127.011199, 37.582403], [127.0112071, 37.5823992], [127.0112782, 37.5823699], [127.0114761, 37.5823756], [127.0122835, 37.5824626], [127.0122003, 37.5816], [127.0118448, 37.5816301], [127.0113875, 37.5815355], [127.0112928, 37.5815531], [127.0110827, 37.5814136], [127.0108987, 37.5812596], [127.0106416, 37.5810431], [127.0102802, 37.5807817], [127.0100216, 37.5807906], [127.0098745, 37.5808148], [127.0097625, 37.580889], [127.0095931, 37.5811852], [127.0093926, 37.5814874], [127.0092644, 37.5816006], [127.0091198, 37.5816378], [127.0089851, 37.5818612], [127.0084071, 37.582804], [127.0086082, 37.5833358], [127.0087251, 37.5836451]]], [[[127.0091518, 37.583671], [127.0091517, 37.5837426], [127.009415, 37.5837428], [127.009415, 37.583771], [127.009496, 37.583771], [127.0094961, 37.5836714], [127.0091518, 37.583671]]], [[[127.0094811, 37.5841146], [127.0094953, 37.583978], [127.0093554, 37.5839689], [127.0093363, 37.5841495], [127.0094641, 37.5841565], [127.0094811, 37.5841146]]], [[[127.012908, 37.5879102], [127.0129689, 37.5877112], [127.0126437, 37.5876871], [127.0126508, 37.5879085], [127.012908, 37.5879102]]]]}}, {"type": "Feature", "properties": {"univ_id": "8132452", "univ_name": "가톨릭대학교 성신교정", "osm_ids": [223434841]}, "geometry": {"type": "Polygon", "coordinates": [[[127.0030855, 37.5865319], [127.0031689, 37.5865214], [127.003233, 37.5865416], [127.0032868, 37.5865803], [127.0033209, 37.5866224], [127.0033511, 37.5866596], [127.0033871, 37.5867252], [127.0034369, 37.5868024], [127.0035601, 37.5869436], [127.0036523, 37.5870662], [127.0037351, 37.5872528], [127.0039656, 37.5874482], [127.0040601, 37.587493], [127.0042365, 37.5871445], [127.0051403, 37.5869513], [127.005867, 37.5869465], [127.0061744, 37.5865951], [127.0065976, 37.5860444], [127.0065476, 37.5855125], [127.0066767, 37.5853715], [127.0069456, 37.5854323], [127.007009, 37.5853085], [127.0068364, 37.584856], [127.0068546, 37.5846374], [127.0068985, 37.5845181], [127.0069799, 37.5842932], [127.0071218, 37.5841244], [127.0071302, 37.5839291], [127.0071292, 37.5837485], [127.0072694, 37.5835302], [127.0073684, 37.5833942], [127.007387, 37.5833295], [127.0073715, 37.5832207], [127.0069048, 37.5831615], [127.0064224, 37.5831245], [127.006392, 37.5833003], [127.0064056, 37.5833729], [127.0063935, 37.5834921], [127.0063477, 37.5835767], [127.0062487, 37.5836677], [127.0062097, 37.5837285], [127.0061883, 37.5838222], [127.0061686, 37.5839708], [127.0061579, 37.5840385], [127.0060255, 37.5841637], [127.0059463, 37.5842287], [127.0058739, 37.5843008], [127.0057607, 37.584375], [127.005685, 37.5844796], [127.0056736, 37.5845891], [127.005697, 37.584663], [127.0057666, 37.5847521], [127.0057254, 37.5848749], [127.0059899, 37.5849626], [127.0059466, 37.5851458], [127.0059194, 37.5852397], [127.0058539, 37.5852782], [127.0054746, 37.5852112], [127.0054819, 37.5851585], [127.0054382, 37.5851249], [127.005436, 37.5850739], [127.0054136, 37.5850428], [127.0049286, 37.5847066], [127.0047941, 37.584506], [127.0045994, 37.5842719], [127.0041568, 37.5838721], [127.0040778, 37.5839328], [127.0044963, 37.5845152], [127.0043607, 37.5845724], [127.0035211, 37.5849268], [127.0029784, 37.5853025], [127.0030623, 37.5858672], [127.0028898, 37.5860095], [127.003012, 37.5864996], [127.0030855, 37.5865319]]]}}, {"type": "Feature", "properties": {"univ_id": "8138835", "univ_name": "감리교신학대학교", "osm_ids": [768481829]}, "geometry": {"type": "Polygon", "coordinates": [[[126.9619482, 37.5683013], [126.962361, 37.5680754], [126.9624335, 37.5680425], [126.9626582, 37.567974], [126.9629603, 37.5679034], [126.9630415, 37.5678844], [126.9632234, 37.5678419], [126.9634722, 37.5677601], [126.9635204, 37.5677443], [126.9637015, 37.567595], [126.9638751, 37.5673559], [126.9640432, 37.5671244], [126.964084, 37.5670653], [126.9632619, 37.566841], [126.9626727, 37.5666826], [126.9622065, 37.5666298], [126.9620426, 37.5666501], [126.9617506, 37.5668288], [126.9614432, 37.5668856], [126.9608194, 37.5665969], [126.9605635, 37.5667826], [126.9605036, 37.5669644], [126.9605694, 37.5671989], [126.9606575, 37.5674428], [126.9607406, 37.5676417], [126.9607368, 37.5677168], [126.9607299, 37.5678507], [126.9607635, 37.5678538], [126.9616321, 37.5681958], [126.9619482, 37.5683013]]]}}, {"type": "Feature", "properties": {"univ_id": "11025307", "univ_name": "강서대학교", "osm_ids": [241449401]}, "geometry": {"type": "Polygon", "coordinates": [[[126.8546036, 37.5491743], [126.8558503, 37.5489093], [126.8558874, 37.5485896], [126.8559723, 37.548476], [126.8559352, 37.5483414], [126.8558557, 37.5482691], [126.8558185, 37.5482363], [126.8554683, 37.5477484], [126.8553747, 37.5476857], [126.8550917, 37.547496], [126.8548529, 37.5476811], [126.8550704, 37.5478661], [126.8539306, 37.5481787], [126.8536592, 37.5482531], [126.8531555, 37.5481396], [126.8531005, 37.5482225], [126.853394, 37.5483498], [126.8537176, 37.5484971], [126.8538343, 37.5485433], [126.8543383, 37.5490313], [126.8546036, 37.5491743]]]}}, {"type": "Feature", "properties": {"univ_id": "12840668", "univ_name": "건국대학교 서울캠퍼스", "osm_ids": [26281749]}, "geometry": {"type": "Polygon", "coordinates": [[[127.0729458, 37.5444944], [127.073155, 37.5444859], [127.0732704, 37.5445454], [127.073375, 37.5446007], [127.0734715, 37.5446369], [127.0735991, 37.5446607], [127.0737812, 37.544685], [127.0739136, 37.5446871], [127.0741014, 37.5446746], [127.0743415, 37.5446309], [127.0745129, 37.5446093], [127.0749265, 37.5445573], [127.0750366, 37.5446273], [127.0752268, 37.5446923], [127.0755685, 37.544649], [127.0757099, 37.5446249], [127.0760556, 37.5446861], [127.0768874, 37.544883], [127.0798227, 37.5449864], [127.0800454, 37.5448121], [127.0800024, 37.5442405], [127.0796737, 37.543857], [127.0788791, 37.5439156], [127.0786929, 37.5438086], [127.0785957, 37.5430628], [127.078866, 37.5425316], [127.081263, 37.5423961], [127.0812852, 37.5421444], [127.0813995, 37.542133], [127.0814278, 37.541979], [127.0820074, 37.5418196], [127.0820845, 37.5416566], [127.0823421, 37.5415185], [127.0829717, 37.5413315], [127.0824215, 37.5400682], [127.0809572, 37.5404479], [127.0808366, 37.5401938], [127.0809888, 37.5401474], [127.0810036, 37.53985], [127.0808257, 37.5390379], [127.0800705, 37.5391549], [127.0799672, 37.5387042], [127.0787285, 37.5389288], [127.0784388, 37.5390009], [127.0772598, 37.5390135], [127.0770079, 37.5390822], [127.076907, 37.539219], [127.0768655, 37.5392219], [127.0767638, 37.539229], [127.075383, 37.539326], [127.0752909, 37.5393313], [127.0752423, 37.5393046], [127.0752011, 37.5390555], [127.075175, 37.5389087], [127.0751252, 37.5387617], [127.072446, 37.5395058], [127.072847, 37.5402989], [127.0731899, 37.5409406], [127.0728788, 37.5411852], [127.0728171, 37.5413149], [127.0727473, 37.5414596], [127.0726508, 37.5416361], [127.072569, 37.5417339], [127.0724268, 37.541819], [127.072219, 37.5418743], [127.0717978, 37.5420093], [127.0725057, 37.5434822], [127.0726384, 37.5437584], [127.0728512, 37.5441917], [127.0729458, 37.5444944]]]}}, {"type": "Feature", "properties": {"univ_id": "8917867", "univ_name": "동덕여자대학교", "osm_ids": [649380298]}, "geometry": {"type": "Polygon", "coordinates": [[[127.0415134, 37.6054016], [127.0414514, 37.6053857], [127.041396, 37.6053633], [127.0409842, 37.6051971], [127.0407631, 37.6051553], [127.0406272, 37.6051575], [127.0405744, 37.6056138], [127.0402911, 37.6056767], [127.040451, 37.6059917], [127.0409037, 37.6059846], [127.0409258, 37.6060662], [127.0409204, 37.6061282], [127.0408947, 37.6064479], [127.0408608, 37.6065163], [127.0408908, 37.6066393], [127.0412287, 37.6070316], [127.0417653, 37.607312], [127.0418702, 37.6075202], [127.043096, 37.6076121], [127.0439638, 37.6076827], [127.0440254, 37.6077482], [127.0441846, 37.6076952], [127.0440369, 37.6075203], [127.0440365, 37.6074382], [127.0441822, 37.6070542], [127.044361, 37.6067997], [127.0444641, 37.6065358], [127.0444744, 37.6064886], [127.0444496, 37.6064501], [127.044409, 37.6064308], [127.044361, 37.6064261], [127.0437995, 37.6064233], [127.0437809, 37.6064535], [127.0438031, 37.6064859], [127.0438361, 37.6065773], [127.0438679, 37.6066058], [127.0438689, 37.6066536], [127.0438419, 37.6066878], [127.0436549, 37.6068074], [127.043744, 37.6069498], [127.0429633, 37.6068313], [127.0429463, 37.6068287], [127.0429426, 37.606654], [127.0429741, 37.6064653], [127.0428962, 37.6060552], [127.0429317, 37.6059218], [127.0426129, 37.605787], [127.0423347, 37.6057425], [127.0422547, 37.6056583], [127.042169, 37.6056485], [127.0420865, 37.6055437], [127.0418696, 37.6054988], [127.0415701, 37.6053225], [127.0415134, 37.6054016]]]}}, {"type": "Feature", "properties": {"univ_id": "7940291", "univ_name": "서울교육대학교", "osm_ids": [228171769]}, "geometry": {"type": "Polygon", "coordinates": [[[127.0143229, 37.4911904], [127.0143094, 37.4912571], [127.0168622, 37.4915099], [127.0170067, 37.4913291], [127.0172028, 37.4911898], [127.0173554, 37.4911305], [127.0177053, 37.4911159], [127.017959, 37.4910635], [127.0180575, 37.4910256], [127.0180889, 37.4909887], [127.0181422, 37.4909022], [127.0182798, 37.4906615], [127.0187525, 37.4897526], [127.0185184, 37.4896846], [127.0181382, 37.4895685], [127.0177868, 37.4894578], [127.0173499, 37.4893196], [127.0167983, 37.4891465], [127.0157669, 37.4888436], [127.0153274, 37.488706], [127.0147907, 37.488544], [127.0146664, 37.4889969], [127.0144641, 37.4902132], [127.0144557, 37.4902746], [127.0143556, 37.4910032], [127.0143482, 37.4910457], [127.0143229, 37.4911904]]]}}, {"type": "Feature", "properties": {"univ_id": "7939462", "univ_name": "서울기독대학교", "osm_ids": [463180987]}, "geometry": {"type": "Polygon", "coordinates": [[[126.9130867, 37.6010252], [126.9131119, 37.6010141], [126.9127608, 37.6003152], [126.9127215, 37.6002796], [126.9122861, 37.6006112], [126.9119406, 37.600767], [126.911626, 37.6008983], [126.9113731, 37.6010897], [126.9113703, 37.6012411], [126.9118001, 37.6012299], [126.9118366, 37.6012834], [126.9122187, 37.6011654], [126.9122636, 37.6012745], [126.9130867, 37.6010252]]]}}, {"type": "Feature", "properties": {"univ_id": "11137164", "univ_name": "서울대학교 연건캠퍼스", "osm_ids": [223434837]}, "geometry": {"type": "Polygon", "coordinates": [[[127.0002642, 37.5787419], [127.0003651, 37.5787305], [127.0004822, 37.5785547], [127.0008304, 37.5783644], [127.0011161, 37.5780545], [127.0003881, 37.5776239], [127.0006615, 37.5774284], [127.0006411, 37.5768344], [127.0000819, 37.576974], [126.9995721, 37.5771844], [126.9991907, 37.5770585], [126.9988645, 37.5768491], [126.99801, 37.5767019], [126.9977406, 37.577254], [126.9973045, 37.5772617], [126.9970147, 37.5781136], [126.9969303, 37.5783845], [126.99676, 37.5795995], [126.9966461, 37.5802879], [126.9966512, 37.5807029], [126.9966724, 37.5808683], [126.9968861, 37.5811995], [126.9976291, 37.5818988], [126.9978288, 37.5817857], [126.9978916, 37.5813528], [126.9980027, 37.5813037], [126.9984094, 37.5812658], [126.9992174, 37.5813541], [126.9992267, 37.5811701], [126.9998398, 37.5811701], [127.0002214, 37.5811757], [127.0007266, 37.5812601], [127.0007348, 37.5813508], [127.0009683, 37.5813626], [127.0009582, 37.581714], [127.0018097, 37.5817307], [127.0019715, 37.5800125], [127.0019784, 37.579742], [127.001612, 37.5797097], [127.0010401, 37.5793879], [127.0002364, 37.578847], [127.0002642, 37.5787419]]]}}, {"type": "Feature", "properties": {"univ_id": "8139895", "univ_name": "서울한영대학교", "osm_ids": [249854000]}, "geometry": {"type": "Polygon", "coordinates": [[[126.8526276, 37.4960512], [126.8517123, 37.496212], [126.8513435, 37.4962297], [126.8508938, 37.4963155], [126.850418, 37.4964703], [126.8505012, 37.4966301], [126.8506176, 37.4967379], [126.850802, 37.4968004], [126.8517206, 37.4969637], [126.8520889, 37.4969073], [126.8522519, 37.496818], [126.8523878, 37.4966979], [126.8525702, 37.4964884], [126.8526401, 37.496279], [126.8526276, 37.4960512]]]}}, {"type": "Feature", "properties": {"univ_id": "20599241", "univ_name": "성공회대학교", "osm_ids": [183847196]}, "geometry": {"type": "Polygon", "coordinates": [[[126.824577, 37.4876808], [126.8243985, 37.4879052], [126.8246994, 37.4883952], [126.8249098, 37.4885572], [126.8254956, 37.4884295], [126.8259934, 37.4882507], [126.8260901, 37.4881811], [126.8261602, 37.4878587], [126.8263431, 37.4875442], [126.8267792, 37.4875186], [126.8269735, 37.4870512], [126.8268131, 37.4869274], [126.8268427, 37.48681], [126.8267975, 37.4867149], [126.8261543, 37.4865822], [126.8255409, 37.4863707], [126.8252381, 37.4868971], [126.824577, 37.4876808]]]}}, {"type": "Feature", "properties": {"univ_id": "12817755", "univ_name": "성신여자대학교 미아운정그린캠퍼스", "osm_ids": [475332792]}, "geometry": {"type": "Polygon", "coordinates": [[[127.0270565, 37.630706], [127.0265794, 37.6320306], [127.026751, 37.6320603], [127.0268691, 37.632209], [127.0268744, 37.6323917], [127.026912, 37.6325107], [127.0269066, 37.6327698], [127.0270944, 37.6328972], [127.0273036, 37.6329865], [127.0275611, 37.6332881], [127.0276666, 37.6332689], [127.0278045, 37.6328832], [127.0282055, 37.6329376], [127.0277277, 37.6308472], [127.0275482, 37.630819], [127.0270565, 37.630706]]]}}, {"type": "Feature", "properties": {"univ_id": "11237653", "univ_name": "총신대학교 사당캠퍼스", "osm_ids": [367420004]}, "geometry": {"type": "Polygon", "coordinates": [[[126.9685285, 37.4879691], [126.9674272, 37.4888243], [126.9672505, 37.4887752], [126.9671943, 37.488551], [126.9669159, 37.4880603], [126.9669343, 37.4878919], [126.9667657, 37.4877553], [126.966452, 37.4881444], [126.9658467, 37.489452], [126.9657945, 37.489686], [126.9658282, 37.4898999], [126.9663637, 37.4902898], [126.9666376, 37.4902688], [126.9675079, 37.4896834], [126.9686376, 37.48957], [126.9692956, 37.4889058], [126.9694166, 37.4886001], [126.9690363, 37.4883651], [126.9688491, 37.4882494], [126.9685285, 37.4879691]]]}}, {"type": "Feature", "properties": {"univ_id": "8135259", "univ_name": "한국방송통신대학교 대학본부", "osm_ids": [223434838]}, "geometry": {"type": "Polygon", "coordinates": [[[127.002463, 37.5778924], [127.0023981, 37.5795776], [127.0033539, 37.5797099], [127.0044512, 37.5799523], [127.0044622, 37.5796913], [127.0044638, 37.5791257], [127.0044763, 37.57883], [127.0044952, 37.5783852], [127.0045074, 37.5781], [127.0045087, 37.578068], [127.0045096, 37.5780473], [127.0045253, 37.5770723], [127.0041217, 37.5770729], [127.0041171, 37.5768869], [127.0034968, 37.5768731], [127.0031411, 37.57692], [127.0025599, 37.5768567], [127.0025353, 37.5770211], [127.002463, 37.5778924]]]}}, {"type": "Feature", "properties": {"univ_id": "17010755", "univ_name": "한국성서대학교", "osm_ids": [173167199]}, "geometry": {"type": "Polygon", "coordinates": [[[127.0632177, 37.6491163], [127.0648572, 37.6494774], [127.0648727, 37.6494279], [127.0649613, 37.6491449], [127.0650621, 37.6488232], [127.0647911, 37.6484489], [127.0644638, 37.648059], [127.0641612, 37.647733], [127.0640242, 37.6475853], [127.0635681, 37.6484332], [127.0636044, 37.6484463], [127.0635773, 37.6484932], [127.0632177, 37.6491163]]]}}, {"type": "Feature", "properties": {"univ_id": "8644095", "univ_name": "한국예술종합학교 석관동캠퍼스", "osm_ids": [330535350]}, "geometry": {"type": "Polygon", "coordinates": [[[127.0551235, 37.6012666], [127.0560756, 37.602641], [127.056887, 37.6030638], [127.0583432, 37.6038225], [127.0586822, 37.6040714], [127.0584973, 37.6042814], [127.0581153, 37.6044327], [127.0579057, 37.6043888], [127.0573758, 37.6043253], [127.0567685, 37.6040421], [127.0561825, 37.6035161], [127.0559835, 37.6033098], [127.0554417, 37.6032885], [127.0552249, 37.6035538], [127.0551248, 37.6036501], [127.0557623, 37.6043259], [127.0551531, 37.6043551], [127.0550525, 37.6046589], [127.054847, 37.6047477], [127.054903, 37.6048808], [127.0552535, 37.6052396], [127.0550604, 37.6054946], [127.0556365, 37.6056425], [127.0558221, 37.6057921], [127.0556076, 37.6060046], [127.0549638, 37.6058686], [127.0545268, 37.606374], [127.0543213, 37.6061672], [127.0543188, 37.6058581], [127.0540998, 37.605569], [127.0539855, 37.6056202], [127.0534553, 37.6058576], [127.0534012, 37.6061072], [127.0534752, 37.6062194], [127.0539408, 37.6067296], [127.0540853, 37.6066299], [127.0543642, 37.6065128], [127.0553053, 37.6073192], [127.055367, 37.6075766], [127.0554224, 37.6082112], [127.0553546, 37.608753], [127.0554779, 37.6088555], [127.0555641, 37.608836], [127.0556812, 37.6088409], [127.0560398, 37.6085459], [127.0560769, 37.6085154], [127.0565626, 37.6081158], [127.0566141, 37.6080763], [127.0566389, 37.608053], [127.0568027, 37.6079183], [127.0565978, 37.6077949], [127.0564083, 37.6076888], [127.0562543, 37.6073764], [127.0562296, 37.6072544], [127.0574497, 37.6072202], [127.0575976, 37.6071567], [127.0578564, 37.6068834], [127.0582077, 37.6064049], [127.0586021, 37.6058972], [127.0586883, 37.6056678], [127.0591012, 37.6057264], [127.0591258, 37.6056385], [127.0592491, 37.605658], [127.0595818, 37.6052773], [127.0599078, 37.6049795], [127.0601163, 37.6046696], [127.0601591, 37.6045995], [127.0602007, 37.6044849], [127.06026, 37.6042], [127.06041, 37.60392], [127.06053, 37.6038], [127.0606973, 37.6036293], [127.0607995, 37.6035247], [127.0605317, 37.6034023], [127.0602634, 37.6030923], [127.0601831, 37.6028771], [127.0600263, 37.6024567], [127.0600453, 37.6021711], [127.0606056, 37.6019671], [127.0600963, 37.6015398], [127.0596283, 37.6014341], [127.059346, 37.6012775], [127.0591789, 37.6010333], [127.0583643, 37.6010756], [127.0575674, 37.6011164], [127.0577644, 37.6014603], [127.0561945, 37.6012625], [127.0558881, 37.6011497], [127.0554721, 37.6009965], [127.0553974, 37.6010545], [127.0552402, 37.6011762], [127.0551235, 37.6012666]]]}}, {"type": "Feature", "properties": {"univ_id": "11219441", "univ_name": "한국체육대학교", "osm_ids": [415026013]}, "geometry": {"type": "Polygon", "coordinates": [[[127.1324778, 37.5217035], [127.1330622, 37.5214564], [127.133164, 37.5213565], [127.133231, 37.5212502], [127.133309, 37.5210607], [127.1333452, 37.5209256], [127.1333519, 37.5207884], [127.133165, 37.5202984], [127.133056, 37.5200311], [127.132735, 37.5193978], [127.1316102, 37.5176799], [127.131596, 37.5176595], [127.1313435, 37.5172969], [127.1302236, 37.5177682], [127.1298782, 37.5179659], [127.1296867, 37.5182082], [127.1294989, 37.5185477], [127.1292118, 37.5199981], [127.1289234, 37.5205762], [127.1291699, 37.5206535], [127.1298718, 37.5207408], [127.1316866, 37.5209727], [127.131925, 37.5210639], [127.1320269, 37.5211203], [127.1321592, 37.5212333], [127.1324778, 37.5217035]]]}}, {"type": "Feature", "properties": {"univ_id": "10942308", "univ_name": "한양여자대학교", "osm_ids": [187354397]}, "geometry": {"type": "Polygon", "coordinates": [[[127.0496964, 37.5577148], [127.0496475, 37.55758], [127.0495547, 37.5575757], [127.0493731, 37.5574854], [127.0492812, 37.5574397], [127.0493003, 37.5574044], [127.0491573, 37.5573559], [127.048779, 37.5572276], [127.0483537, 37.5570834], [127.0483314, 37.5571247], [127.0480718, 37.5576057], [127.0479626, 37.557808], [127.0479365, 37.5578564], [127.0482276, 37.5579532], [127.0482126, 37.5580036], [127.0487309, 37.5581512], [127.0487059, 37.5582064], [127.0486411, 37.558368], [127.0486186, 37.5584454], [127.0486154, 37.5584667], [127.0485965, 37.5585261], [127.0485867, 37.5585586], [127.0486841, 37.5585651], [127.0486377, 37.5586719], [127.0485927, 37.5587962], [127.0484633, 37.5588061], [127.0483654, 37.5589021], [127.0488783, 37.5593052], [127.0491975, 37.5598495], [127.0492732, 37.5598907], [127.0492853, 37.5597895], [127.0493406, 37.5596101], [127.0492399, 37.559288], [127.0495621, 37.5592772], [127.0496816, 37.559244], [127.0498473, 37.5592371], [127.0499839, 37.5592479], [127.0503272, 37.5593307], [127.0506083, 37.5586071], [127.0508363, 37.5580677], [127.0505332, 37.5579104], [127.0496964, 37.5577148]]]}}]}