{
"type": "FeatureCollection",
"name": "A_crossing_points",
"crs": { "type": "name", "properties": { "name": "urn:ogc:def:crs:OGC:1.3:CRS84" } },
"features": [
{ "type": "Feature", "properties": { "학교": "숭실대", "node": "11413637475", "유형": "횡단보도 있음", "지원수준": "보행등+음향", "지원점수_최대": 0, "횡단보도수": 4, "횡단단수_최대": 1, "이단_수": 0, "보행등없음_수": 0.0, "음향_수": 4.0, "불일치_수": 0.0, "위험": 23, "인프라": 23, "부족": 1.0, "위험미확인": false, "A점수": 1.0, "차도_엣지수": 2, "교차로관리번호": "7991", "x": 195598.01649249691, "y": 544193.78028973693, "lon": 126.95022, "lat": 37.4971933 }, "geometry": { "type": "Point", "coordinates": [ 126.95022, 37.4971933 ] } },
{ "type": "Feature", "properties": { "학교": "숭실대", "node": "11413637545", "유형": "횡단보도 있음", "지원수준": "보행등 없음", "지원점수_최대": 2, "횡단보도수": 2, "횡단단수_최대": 2, "이단_수": 2, "보행등없음_수": 1.0, "음향_수": 2.0, "불일치_수": 1.0, "위험": 0, "인프라": 39, "부족": null, "위험미확인": true, "A점수": null, "차도_엣지수": 2, "교차로관리번호": "1842", "x": 195696.16679334079, "y": 543567.10762057488, "lon": 126.9513336, "lat": 37.4915474 }, "geometry": { "type": "Point", "coordinates": [ 126.951333600000012, 37.4915474 ] } },
{ "type": "Feature", "properties": { "학교": "숭실대", "node": "11413637586", "유형": "횡단보도 있음", "지원수준": "보행등만", "지원점수_최대": 1, "횡단보도수": 3, "횡단단수_최대": 2, "이단_수": 2, "보행등없음_수": 0.0, "음향_수": 2.0, "불일치_수": 0.0, "위험": 0, "인프라": 30, "부족": null, "위험미확인": true, "A점수": null, "차도_엣지수": 2, "교차로관리번호": "1244", "x": 196161.11310780951, "y": 543464.70569710422, "lon": 126.9565916, "lat": 37.4906268 }, "geometry": { "type": "Point", "coordinates": [ 126.95659160000001, 37.4906268 ] } },
{ "type": "Feature", "properties": { "학교": "숭실대", "node": "11413637898", "유형": "횡단보도 있음", "지원수준": "보행등+음향", "지원점수_최대": 0, "횡단보도수": 3, "횡단단수_최대": 2, "이단_수": 2, "보행등없음_수": 0.0, "음향_수": 3.0, "불일치_수": 0.0, "위험": 0, "인프라": 39, "부족": null, "위험미확인": true, "A점수": null, "차도_엣지수": 0, "교차로관리번호": "1843", "x": 195507.86148674123, "y": 543649.58159770467, "lon": 126.9492038, "lat": 37.4922896 }, "geometry": { "type": "Point", "coordinates": [ 126.9492038, 37.4922896 ] } },
{ "type": "Feature", "properties": { "학교": "숭실대", "node": "13149390530", "유형": "횡단보도 있음", "지원수준": "보행등 없음", "지원점수_최대": 2, "횡단보도수": 3, "횡단단수_최대": 2, "이단_수": 3, "보행등없음_수": 1.0, "음향_수": 2.0, "불일치_수": 0.0, "위험": 23, "인프라": 34, "부족": 0.0, "위험미확인": false, "A점수": 2.0, "차도_엣지수": 0, "교차로관리번호": "1666", "x": 196169.53776731814, "y": 543995.57453395845, "lon": 126.9566841, "lat": 37.49541 }, "geometry": { "type": "Point", "coordinates": [ 126.9566841, 37.49541 ] } },
{ "type": "Feature", "properties": { "학교": "숭실대", "node": "13149390531", "유형": "횡단보도 있음", "지원수준": "보행등 없음", "지원점수_최대": 2, "횡단보도수": 3, "횡단단수_최대": 2, "이단_수": 3, "보행등없음_수": 1.0, "음향_수": 2.0, "불일치_수": 0.0, "위험": 0, "인프라": 27, "부족": null, "위험미확인": true, "A점수": null, "차도_엣지수": 0, "교차로관리번호": "1667", "x": 196368.00447528597, "y": 543957.9830707364, "lon": 126.9589286, "lat": 37.4950721 }, "geometry": { "type": "Point", "coordinates": [ 126.9589286, 37.4950721 ] } },
{ "type": "Feature", "properties": { "학교": "숭실대", "node": "13316391021", "유형": "횡단보도 있음", "지원수준": "보행등 없음", "지원점수_최대": 2, "횡단보도수": 3, "횡단단수_최대": 2, "이단_수": 2, "보행등없음_수": 1.0, "음향_수": 2.0, "불일치_수": 0.0, "위험": 23, "인프라": 30, "부족": 0.0, "위험미확인": false, "A점수": 2.0, "차도_엣지수": 4, "교차로관리번호": "640", "x": 195960.75151341953, "y": 544011.86623284989, "lon": 126.954323, "lat": 37.4955559 }, "geometry": { "type": "Point", "coordinates": [ 126.954323, 37.4955559 ] } },
{ "type": "Feature", "properties": { "학교": "숭실대", "node": "13319101346", "유형": "횡단보도 있음", "지원수준": "보행등+음향", "지원점수_최대": 0, "횡단보도수": 1, "횡단단수_최대": 2, "이단_수": 1, "보행등없음_수": 0.0, "음향_수": 1.0, "불일치_수": 0.0, "위험": 0, "인프라": 36, "부족": null, "위험미확인": true, "A점수": null, "차도_엣지수": 0, "교차로관리번호": "6995", "x": 195850.74457780784, "y": 543428.11793479091, "lon": 126.9530823, "lat": 37.4902958 }, "geometry": { "type": "Point", "coordinates": [ 126.9530823, 37.4902958 ] } },
{ "type": "Feature", "properties": { "학교": "숭실대", "node": "13322228135", "유형": "횡단보도 있음", "지원수준": "보행등 없음", "지원점수_최대": 2, "횡단보도수": 4, "횡단단수_최대": 2, "이단_수": 1, "보행등없음_수": 4.0, "음향_수": 0.0, "불일치_수": 0.0, "위험": 0, "인프라": 22, "부족": null, "위험미확인": true, "A점수": null, "차도_엣지수": 2, "교차로관리번호": "4632", "x": 196479.470406807, "y": 543828.52438595006, "lon": 126.9601897, "lat": 37.4939061 }, "geometry": { "type": "Point", "coordinates": [ 126.960189700000015, 37.4939061 ] } },
{ "type": "Feature", "properties": { "학교": "숭실대", "node": "13324709490", "유형": "횡단보도 있음", "지원수준": "보행등 없음", "지원점수_최대": 2, "횡단보도수": 2, "횡단단수_최대": 2, "이단_수": 1, "보행등없음_수": 1.0, "음향_수": 1.0, "불일치_수": 0.0, "위험": 0, "인프라": 31, "부족": null, "위험미확인": true, "A점수": null, "차도_엣지수": 2, "교차로관리번호": "7131", "x": 195969.44792960412, "y": 543434.98520291341, "lon": 126.9544245, "lat": 37.4903582 }, "geometry": { "type": "Point", "coordinates": [ 126.954424499999988, 37.4903582 ] } },
{ "type": "Feature", "properties": { "학교": "숭실대", "node": "1872054412", "유형": "횡단보도 있음", "지원수준": "보행등+음향", "지원점수_최대": 0, "횡단보도수": 2, "횡단단수_최대": 2, "이단_수": 2, "보행등없음_수": 0.0, "음향_수": 2.0, "불일치_수": 0.0, "위험": 0, "인프라": 23, "부족": null, "위험미확인": true, "A점수": null, "차도_엣지수": 2, "교차로관리번호": "1245", "x": 196032.41522572417, "y": 543454.10019544233, "lon": 126.9551364, "lat": 37.4905307 }, "geometry": { "type": "Point", "coordinates": [ 126.955136400000015, 37.4905307 ] } },
{ "type": "Feature", "properties": { "학교": "숭실대", "node": "1872054413", "유형": "횡단보도 있음", "지원수준": "보행등+음향", "지원점수_최대": 0, "횡단보도수": 2, "횡단단수_최대": 2, "이단_수": 2, "보행등없음_수": 0.0, "음향_수": 2.0, "불일치_수": 0.0, "위험": 0, "인프라": 41, "부족": null, "위험미확인": true, "A점수": null, "차도_엣지수": 3, "교차로관리번호": "1839", "x": 195889.10045050242, "y": 543393.8816496575, "lon": 126.9535162, "lat": 37.4899875 }, "geometry": { "type": "Point", "coordinates": [ 126.9535162, 37.4899875 ] } },
{ "type": "Feature", "properties": { "학교": "숭실대", "node": "2824550264", "유형": "횡단보도 있음", "지원수준": "보행등 없음", "지원점수_최대": 2, "횡단보도수": 3, "횡단단수_최대": 2, "이단_수": 1, "보행등없음_수": 2.0, "음향_수": 2.0, "불일치_수": 2.0, "위험": 23, "인프라": 26, "부족": 1.0, "위험미확인": false, "A점수": 3.0, "차도_엣지수": 3, "교차로관리번호": "1663", "x": 195713.83585781441, "y": 544373.61873322865, "lon": 126.9515287, "lat": 37.4988142 }, "geometry": { "type": "Point", "coordinates": [ 126.951528699999983, 37.498814200000012 ] } },
{ "type": "Feature", "properties": { "학교": "숭실대", "node": "2824550308", "유형": "횡단보도 있음", "지원수준": "보행등만", "지원점수_최대": 1, "횡단보도수": 4, "횡단단수_최대": 2, "이단_수": 3, "보행등없음_수": 0.0, "음향_수": 2.0, "불일치_수": 0.0, "위험": 23, "인프라": 27, "부족": 1.0, "위험미확인": false, "A점수": 2.0, "차도_엣지수": 4, "교차로관리번호": "1664", "x": 195809.26777418074, "y": 544236.36795412691, "lon": 126.9526087, "lat": 37.497578 }, "geometry": { "type": "Point", "coordinates": [ 126.952608700000013, 37.497578 ] } },
{ "type": "Feature", "properties": { "학교": "숭실대", "node": "2824550315", "유형": "횡단보도 있음", "지원수준": "보행등+음향", "지원점수_최대": 0, "횡단보도수": 1, "횡단단수_최대": 2, "이단_수": 1, "보행등없음_수": 0.0, "음향_수": 1.0, "불일치_수": 0.0, "위험": 23, "인프라": 27, "부족": 0.0, "위험미확인": false, "A점수": 0.0, "차도_엣지수": 2, "교차로관리번호": "8634", "x": 195898.76063257831, "y": 544458.58603482996, "lon": 126.9536195, "lat": 37.4995806 }, "geometry": { "type": "Point", "coordinates": [ 126.953619500000016, 37.4995806 ] } },
{ "type": "Feature", "properties": { "학교": "숭실대", "node": "2824550318", "유형": "횡단보도 있음", "지원수준": "보행등 없음", "지원점수_최대": 2, "횡단보도수": 3, "횡단단수_최대": 2, "이단_수": 3, "보행등없음_수": 1.0, "음향_수": 2.0, "불일치_수": 0.0, "위험": 23, "인프라": 30, "부족": 0.0, "위험미확인": false, "A점수": 2.0, "차도_엣지수": 2, "교차로관리번호": "6094", "x": 195899.26415096933, "y": 544637.00861723465, "lon": 126.9536242, "lat": 37.5011882 }, "geometry": { "type": "Point", "coordinates": [ 126.9536242, 37.5011882 ] } },
{ "type": "Feature", "properties": { "학교": "숭실대", "node": "2824759203", "유형": "횡단보도 있음", "지원수준": "보행등+음향", "지원점수_최대": 0, "횡단보도수": 1, "횡단단수_최대": 1, "이단_수": 0, "보행등없음_수": 0.0, "음향_수": 1.0, "불일치_수": 0.0, "위험": 0, "인프라": 25, "부족": null, "위험미확인": true, "A점수": null, "차도_엣지수": 3, "교차로관리번호": "7723", "x": 196489.05113526669, "y": 544612.39943052747, "lon": 126.9602943, "lat": 37.5009689 }, "geometry": { "type": "Point", "coordinates": [ 126.9602943, 37.5009689 ] } },
{ "type": "Feature", "properties": { "학교": "숭실대", "node": "2824759213", "유형": "횡단보도 있음", "지원수준": "보행등+음향", "지원점수_최대": 0, "횡단보도수": 2, "횡단단수_최대": 1, "이단_수": 0, "보행등없음_수": 0.0, "음향_수": 2.0, "불일치_수": 0.0, "위험": 0, "인프라": 23, "부족": null, "위험미확인": true, "A점수": null, "차도_엣지수": 3, "교차로관리번호": "8594", "x": 196415.66482907333, "y": 543619.84068941278, "lon": 126.9594692, "lat": 37.4920256 }, "geometry": { "type": "Point", "coordinates": [ 126.9594692, 37.4920256 ] } },
{ "type": "Feature", "properties": { "학교": "숭실대", "node": "2824759222", "유형": "횡단보도 있음", "지원수준": "보행등+음향", "지원점수_최대": 0, "횡단보도수": 2, "횡단단수_최대": 2, "이단_수": 1, "보행등없음_수": 0.0, "음향_수": 2.0, "불일치_수": 0.0, "위험": 0, "인프라": 20, "부족": null, "위험미확인": true, "A점수": null, "차도_엣지수": 3, "교차로관리번호": "8364", "x": 196505.80606986917, "y": 544461.46106418839, "lon": 126.9604845, "lat": 37.499609 }, "geometry": { "type": "Point", "coordinates": [ 126.9604845, 37.499609 ] } },
{ "type": "Feature", "properties": { "학교": "숭실대", "node": "2824759281", "유형": "횡단보도 있음", "지원수준": "보행등 없음", "지원점수_최대": 2, "횡단보도수": 3, "횡단단수_최대": 2, "이단_수": 2, "보행등없음_수": 1.0, "음향_수": 2.0, "불일치_수": 0.0, "위험": 0, "인프라": 23, "부족": null, "위험미확인": true, "A점수": null, "차도_엣지수": 4, "교차로관리번호": "1668", "x": 196538.105792933, "y": 543924.49241261324, "lon": 126.9608523, "lat": 37.494771 }, "geometry": { "type": "Point", "coordinates": [ 126.9608523, 37.494771 ] } },
{ "type": "Feature", "properties": { "학교": "숭실대", "node": "2824759300", "유형": "횡단보도 있음", "지원수준": "보행등+음향", "지원점수_최대": 0, "횡단보도수": 4, "횡단단수_최대": 2, "이단_수": 2, "보행등없음_수": 0.0, "음향_수": 4.0, "불일치_수": 0.0, "위험": 0, "인프라": 23, "부족": null, "위험미확인": true, "A점수": null, "차도_엣지수": 3, "교차로관리번호": "4629", "x": 196463.553340179, "y": 544413.19954321615, "lon": 126.9600069, "lat": 37.499174 }, "geometry": { "type": "Point", "coordinates": [ 126.9600069, 37.499174 ] } },
{ "type": "Feature", "properties": { "학교": "숭실대", "node": "2825706542", "유형": "횡단보도 있음", "지원수준": "보행등 없음", "지원점수_최대": 2, "횡단보도수": 4, "횡단단수_최대": 2, "이단_수": 1, "보행등없음_수": 3.0, "음향_수": 2.0, "불일치_수": 1.0, "위험": 23, "인프라": 26, "부족": 1.0, "위험미확인": false, "A점수": 3.0, "차도_엣지수": 2, "교차로관리번호": "7140", "x": 195860.69735727069, "y": 544271.25873826048, "lon": 126.9531901, "lat": 37.4978926 }, "geometry": { "type": "Point", "coordinates": [ 126.9531901, 37.4978926 ] } },
{ "type": "Feature", "properties": { "학교": "숭실대", "node": "2825706556", "유형": "횡단보도 있음", "지원수준": "보행등만", "지원점수_최대": 1, "횡단보도수": 2, "횡단단수_최대": 2, "이단_수": 2, "보행등없음_수": 0.0, "음향_수": 1.0, "불일치_수": 0.0, "위험": 23, "인프라": 27, "부족": 1.0, "위험미확인": false, "A점수": 2.0, "차도_엣지수": 2, "교차로관리번호": "5407", "x": 195871.84298914822, "y": 544314.39386424387, "lon": 126.9533159, "lat": 37.4982813 }, "geometry": { "type": "Point", "coordinates": [ 126.9533159, 37.4982813 ] } },
{ "type": "Feature", "properties": { "학교": "숭실대", "node": "2825711987", "유형": "횡단보도 있음", "지원수준": "보행등 없음", "지원점수_최대": 2, "횡단보도수": 3, "횡단단수_최대": 2, "이단_수": 1, "보행등없음_수": 3.0, "음향_수": 0.0, "불일치_수": 0.0, "위험": 0, "인프라": 28, "부족": null, "위험미확인": true, "A점수": null, "차도_엣지수": 3, "교차로관리번호": "4630", "x": 196400.46518858059, "y": 544279.58709701779, "lon": 126.9592941, "lat": 37.4979699 }, "geometry": { "type": "Point", "coordinates": [ 126.9592941, 37.4979699 ] } },
{ "type": "Feature", "properties": { "학교": "숭실대", "node": "969906543", "유형": "횡단보도 있음", "지원수준": "보행등 없음", "지원점수_최대": 2, "횡단보도수": 2, "횡단단수_최대": 2, "이단_수": 1, "보행등없음_수": 1.0, "음향_수": 0.0, "불일치_수": 0.0, "위험": 0, "인프라": 31, "부족": null, "위험미확인": true, "A점수": null, "차도_엣지수": 2, "교차로관리번호": "1665", "x": 196157.03851445034, "y": 543661.33198474324, "lon": 126.9565445, "lat": 37.4923984 }, "geometry": { "type": "Point", "coordinates": [ 126.9565445, 37.4923984 ] } },
{ "type": "Feature", "properties": { "학교": "숭실대", "node": "436821653", "유형": "횡단보도 없는 교차로", "지원수준": "횡단보도 없음", "지원점수_최대": 3, "횡단보도수": 0, "횡단단수_최대": 1, "이단_수": 0, "보행등없음_수": null, "음향_수": null, "불일치_수": null, "위험": 0, "인프라": 32, "부족": null, "위험미확인": true, "A점수": null, "차도_엣지수": 3, "교차로관리번호": null, "x": 196158.11157218518, "y": 543706.1591102276, "lon": 126.9565564, "lat": 37.4928023 }, "geometry": { "type": "Point", "coordinates": [ 126.9565564, 37.4928023 ] } },
{ "type": "Feature", "properties": { "학교": "숭실대", "node": "8482789908", "유형": "횡단보도 없는 교차로", "지원수준": "횡단보도 없음", "지원점수_최대": 3, "횡단보도수": 0, "횡단단수_최대": 1, "이단_수": 0, "보행등없음_수": null, "음향_수": null, "불일치_수": null, "위험": 0, "인프라": 11, "부족": null, "위험미확인": true, "A점수": null, "차도_엣지수": 3, "교차로관리번호": null, "x": 196751.31077608222, "y": 543665.81800345529, "lon": 126.9632644, "lat": 37.4924411 }, "geometry": { "type": "Point", "coordinates": [ 126.963264400000014, 37.4924411 ] } },
{ "type": "Feature", "properties": { "학교": "숭실대", "node": "2824550259", "유형": "횡단보도 없는 교차로", "지원수준": "횡단보도 없음", "지원점수_최대": 3, "횡단보도수": 0, "횡단단수_최대": 1, "이단_수": 0, "보행등없음_수": null, "음향_수": null, "불일치_수": null, "위험": 23, "인프라": 28, "부족": 0.0, "위험미확인": false, "A점수": 3.0, "차도_엣지수": 3, "교차로관리번호": null, "x": 195665.69783205961, "y": 544444.54219763307, "lon": 126.9509839, "lat": 37.499453 }, "geometry": { "type": "Point", "coordinates": [ 126.9509839, 37.499453 ] } },
{ "type": "Feature", "properties": { "학교": "숭실대", "node": "2824550288", "유형": "횡단보도 없는 교차로", "지원수준": "횡단보도 없음", "지원점수_최대": 3, "횡단보도수": 0, "횡단단수_최대": 1, "이단_수": 0, "보행등없음_수": null, "음향_수": null, "불일치_수": null, "위험": 23, "인프라": 27, "부족": 0.0, "위험미확인": false, "A점수": 3.0, "차도_엣지수": 4, "교차로관리번호": null, "x": 195875.86442130126, "y": 544060.46466824727, "lon": 126.9533628, "lat": 37.4959934 }, "geometry": { "type": "Point", "coordinates": [ 126.953362799999979, 37.49599340000001 ] } },
{ "type": "Feature", "properties": { "학교": "숭실대", "node": "2825724226", "유형": "횡단보도 없는 교차로", "지원수준": "횡단보도 없음", "지원점수_최대": 3, "횡단보도수": 0, "횡단단수_최대": 1, "이단_수": 0, "보행등없음_수": null, "음향_수": null, "불일치_수": null, "위험": 23, "인프라": 32, "부족": 0.0, "위험미확인": false, "A점수": 3.0, "차도_엣지수": 4, "교차로관리번호": null, "x": 195955.68990534908, "y": 543932.12454423297, "lon": 126.9542662, "lat": 37.4948374 }, "geometry": { "type": "Point", "coordinates": [ 126.9542662, 37.4948374 ] } },
{ "type": "Feature", "properties": { "학교": "숭실대", "node": "2824759097", "유형": "횡단보도 없는 교차로", "지원수준": "횡단보도 없음", "지원점수_최대": 3, "횡단보도수": 0, "횡단단수_최대": 1, "이단_수": 0, "보행등없음_수": null, "음향_수": null, "불일치_수": null, "위험": 0, "인프라": 24, "부족": null, "위험미확인": true, "A점수": null, "차도_엣지수": 3, "교차로관리번호": null, "x": 196428.15899335811, "y": 543595.30721175682, "lon": 126.9596106, "lat": 37.4918046 }, "geometry": { "type": "Point", "coordinates": [ 126.959610600000019, 37.4918046 ] } },
{ "type": "Feature", "properties": { "학교": "숭실대", "node": "2824759209", "유형": "횡단보도 없는 교차로", "지원수준": "횡단보도 없음", "지원점수_최대": 3, "횡단보도수": 0, "횡단단수_최대": 1, "이단_수": 0, "보행등없음_수": null, "음향_수": null, "불일치_수": null, "위험": 0, "인프라": 24, "부족": null, "위험미확인": true, "A점수": null, "차도_엣지수": 3, "교차로관리번호": null, "x": 196386.70187759167, "y": 543557.48966552794, "lon": 126.959142, "lat": 37.4914637 }, "geometry": { "type": "Point", "coordinates": [ 126.959142, 37.4914637 ] } },
{ "type": "Feature", "properties": { "학교": "숭실대", "node": "2825728925", "유형": "횡단보도 없는 교차로", "지원수준": "횡단보도 없음", "지원점수_최대": 3, "횡단보도수": 0, "횡단단수_최대": 1, "이단_수": 0, "보행등없음_수": null, "음향_수": null, "불일치_수": null, "위험": 0, "인프라": 25, "부족": null, "위험미확인": true, "A점수": null, "차도_엣지수": 3, "교차로관리번호": null, "x": 196208.90437264106, "y": 543503.91766445735, "lon": 126.9571318, "lat": 37.4909803 }, "geometry": { "type": "Point", "coordinates": [ 126.9571318, 37.4909803 ] } },
{ "type": "Feature", "properties": { "학교": "숭실대", "node": "2825711094", "유형": "횡단보도 없는 교차로", "지원수준": "횡단보도 없음", "지원점수_최대": 3, "횡단보도수": 0, "횡단단수_최대": 1, "이단_수": 0, "보행등없음_수": null, "음향_수": null, "불일치_수": null, "위험": 23, "인프라": 29, "부족": 0.0, "위험미확인": false, "A점수": 3.0, "차도_엣지수": 3, "교차로관리번호": null, "x": 195901.61687315049, "y": 544189.38555643789, "lon": 126.9536533, "lat": 37.4971551 }, "geometry": { "type": "Point", "coordinates": [ 126.9536533, 37.4971551 ] } },
{ "type": "Feature", "properties": { "학교": "숭실대", "node": "2825711047", "유형": "횡단보도 없는 교차로", "지원수준": "횡단보도 없음", "지원점수_최대": 3, "횡단보도수": 0, "횡단단수_최대": 1, "이단_수": 0, "보행등없음_수": null, "음향_수": null, "불일치_수": null, "위험": 23, "인프라": 31, "부족": 0.0, "위험미확인": false, "A점수": 3.0, "차도_엣지수": 3, "교차로관리번호": null, "x": 195921.43401338588, "y": 544189.87526372133, "lon": 126.9538774, "lat": 37.4971596 }, "geometry": { "type": "Point", "coordinates": [ 126.9538774, 37.497159600000018 ] } },
{ "type": "Feature", "properties": { "학교": "숭실대", "node": "2825711413", "유형": "횡단보도 없는 교차로", "지원수준": "횡단보도 없음", "지원점수_최대": 3, "횡단보도수": 0, "횡단단수_최대": 1, "이단_수": 0, "보행등없음_수": null, "음향_수": null, "불일치_수": null, "위험": 23, "인프라": 33, "부족": 0.0, "위험미확인": false, "A점수": 3.0, "차도_엣지수": 3, "교차로관리번호": null, "x": 195977.32906992562, "y": 544188.21655275777, "lon": 126.9545095, "lat": 37.4971449 }, "geometry": { "type": "Point", "coordinates": [ 126.9545095, 37.4971449 ] } },
{ "type": "Feature", "properties": { "학교": "숭실대", "node": "2825711406", "유형": "횡단보도 없는 교차로", "지원수준": "횡단보도 없음", "지원점수_최대": 3, "횡단보도수": 0, "횡단단수_최대": 1, "이단_수": 0, "보행등없음_수": null, "음향_수": null, "불일치_수": null, "위험": 23, "인프라": 27, "부족": 0.0, "위험미확인": false, "A점수": 3.0, "차도_엣지수": 3, "교차로관리번호": null, "x": 195841.79379305252, "y": 544187.42856045591, "lon": 126.9529768, "lat": 37.4971372 }, "geometry": { "type": "Point", "coordinates": [ 126.952976800000016, 37.4971372 ] } },
{ "type": "Feature", "properties": { "학교": "숭실대", "node": "2825711424", "유형": "횡단보도 없는 교차로", "지원수준": "횡단보도 없음", "지원점수_최대": 3, "횡단보도수": 0, "횡단단수_최대": 1, "이단_수": 0, "보행등없음_수": null, "음향_수": null, "불일치_수": null, "위험": 0, "인프라": 30, "부족": null, "위험미확인": true, "A점수": null, "차도_엣지수": 3, "교차로관리번호": null, "x": 196384.1319821231, "y": 544217.18617454253, "lon": 126.9591097, "lat": 37.4974076 }, "geometry": { "type": "Point", "coordinates": [ 126.959109699999985, 37.49740760000001 ] } },
{ "type": "Feature", "properties": { "학교": "숭실대", "node": "8537501420", "유형": "횡단보도 없는 교차로", "지원수준": "횡단보도 없음", "지원점수_최대": 3, "횡단보도수": 0, "횡단단수_최대": 1, "이단_수": 0, "보행등없음_수": null, "음향_수": null, "불일치_수": null, "위험": 8, "인프라": 36, "부족": 0.0, "위험미확인": false, "A점수": 3.0, "차도_엣지수": 3, "교차로관리번호": null, "x": 196256.53378081578, "y": 543282.4994862543, "lon": 126.9576715, "lat": 37.4889855 }, "geometry": { "type": "Point", "coordinates": [ 126.9576715, 37.4889855 ] } },
{ "type": "Feature", "properties": { "학교": "숭실대", "node": "4619539868", "유형": "횡단보도 없는 교차로", "지원수준": "횡단보도 없음", "지원점수_최대": 3, "횡단보도수": 0, "횡단단수_최대": 1, "이단_수": 0, "보행등없음_수": null, "음향_수": null, "불일치_수": null, "위험": 0, "인프라": 15, "부족": null, "위험미확인": true, "A점수": null, "차도_엣지수": 4, "교차로관리번호": null, "x": 196679.20523839633, "y": 543387.25825029879, "lon": 126.9624503, "lat": 37.489931 }, "geometry": { "type": "Point", "coordinates": [ 126.9624503, 37.489931 ] } },
{ "type": "Feature", "properties": { "학교": "숭실대", "node": "4619539869", "유형": "횡단보도 없는 교차로", "지원수준": "횡단보도 없음", "지원점수_최대": 3, "횡단보도수": 0, "횡단단수_최대": 1, "이단_수": 0, "보행등없음_수": null, "음향_수": null, "불일치_수": null, "위험": 0, "인프라": 11, "부족": null, "위험미확인": true, "A점수": null, "차도_엣지수": 3, "교차로관리번호": null, "x": 196722.35043875308, "y": 543356.22032322711, "lon": 126.9629383, "lat": 37.4896515 }, "geometry": { "type": "Point", "coordinates": [ 126.9629383, 37.4896515 ] } },
{ "type": "Feature", "properties": { "학교": "숭실대", "node": "4619539870", "유형": "횡단보도 없는 교차로", "지원수준": "횡단보도 없음", "지원점수_최대": 3, "횡단보도수": 0, "횡단단수_최대": 1, "이단_수": 0, "보행등없음_수": null, "음향_수": null, "불일치_수": null, "위험": 0, "인프라": 10, "부족": null, "위험미확인": true, "A점수": null, "차도_엣지수": 4, "교차로관리번호": null, "x": 196779.97525187075, "y": 543376.06448570068, "lon": 126.9635898, "lat": 37.4898305 }, "geometry": { "type": "Point", "coordinates": [ 126.9635898, 37.4898305 ] } },
{ "type": "Feature", "properties": { "학교": "숭실대", "node": "8482835723", "유형": "횡단보도 없는 교차로", "지원수준": "횡단보도 없음", "지원점수_최대": 3, "횡단보도수": 0, "횡단단수_최대": 1, "이단_수": 0, "보행등없음_수": null, "음향_수": null, "불일치_수": null, "위험": 0, "인프라": 12, "부족": null, "위험미확인": true, "A점수": null, "차도_엣지수": 4, "교차로관리번호": null, "x": 196718.97888769675, "y": 543642.66771427437, "lon": 126.9628989, "lat": 37.4922324 }, "geometry": { "type": "Point", "coordinates": [ 126.9628989, 37.4922324 ] } },
{ "type": "Feature", "properties": { "학교": "숭실대", "node": "10792799832", "유형": "횡단보도 없는 교차로", "지원수준": "횡단보도 없음", "지원점수_최대": 3, "횡단보도수": 0, "횡단단수_최대": 1, "이단_수": 0, "보행등없음_수": null, "음향_수": null, "불일치_수": null, "위험": 8, "인프라": 35, "부족": 0.0, "위험미확인": false, "A점수": 3.0, "차도_엣지수": 3, "교차로관리번호": null, "x": 196241.84775192899, "y": 543310.0641402792, "lon": 126.9575053, "lat": 37.4892338 }, "geometry": { "type": "Point", "coordinates": [ 126.9575053, 37.4892338 ] } },
{ "type": "Feature", "properties": { "학교": "중앙대", "node": "10107993115", "유형": "횡단보도 있음", "지원수준": "보행등 없음", "지원점수_최대": 2, "횡단보도수": 2, "횡단단수_최대": 2, "이단_수": 1, "보행등없음_수": 1.0, "음향_수": 0.0, "불일치_수": 0.0, "위험": 57, "인프라": 58, "부족": 1.0, "위험미확인": false, "A점수": 3.0, "차도_엣지수": 3, "교차로관리번호": "6262", "x": 196610.32391560962, "y": 545260.70269788057, "lon": 126.9616628, "lat": 37.5068106 }, "geometry": { "type": "Point", "coordinates": [ 126.9616628, 37.5068106 ] } },
{ "type": "Feature", "properties": { "학교": "중앙대", "node": "12056766167", "유형": "횡단보도 있음", "지원수준": "보행등 없음", "지원점수_최대": 2, "횡단보도수": 2, "횡단단수_최대": 2, "이단_수": 2, "보행등없음_수": 2.0, "음향_수": 0.0, "불일치_수": 0.0, "위험": 0, "인프라": 51, "부족": null, "위험미확인": true, "A점수": null, "차도_엣지수": 2, "교차로관리번호": "8261", "x": 195583.97590602058, "y": 545663.59056637366, "lon": 126.9500524, "lat": 37.5104363 }, "geometry": { "type": "Point", "coordinates": [ 126.9500524, 37.5104363 ] } },
{ "type": "Feature", "properties": { "학교": "중앙대", "node": "12056780871", "유형": "횡단보도 있음", "지원수준": "보행등 없음", "지원점수_최대": 2, "횡단보도수": 2, "횡단단수_최대": 2, "이단_수": 1, "보행등없음_수": 2.0, "음향_수": 0.0, "불일치_수": 0.0, "위험": 0, "인프라": 41, "부족": null, "위험미확인": true, "A점수": null, "차도_엣지수": 2, "교차로관리번호": "8265", "x": 195670.20441348376, "y": 545610.9816711084, "lon": 126.951028, "lat": 37.5099627 }, "geometry": { "type": "Point", "coordinates": [ 126.951028, 37.5099627 ] } },
{ "type": "Feature", "properties": { "학교": "중앙대", "node": "12864823352", "유형": "횡단보도 있음", "지원수준": "보행등 없음", "지원점수_최대": 2, "횡단보도수": 5, "횡단단수_최대": 2, "이단_수": 1, "보행등없음_수": 2.0, "음향_수": 3.0, "불일치_수": 1.0, "위험": 57, "인프라": 45, "부족": 1.0, "위험미확인": false, "A점수": 3.0, "차도_엣지수": 3, "교차로관리번호": "7129", "x": 196541.59643058034, "y": 544918.84612706664, "lon": 126.9608871, "lat": 37.5037302 }, "geometry": { "type": "Point", "coordinates": [ 126.960887099999979, 37.5037302 ] } },
{ "type": "Feature", "properties": { "학교": "중앙대", "node": "13392265479", "유형": "횡단보도 있음", "지원수준": "보행등 없음", "지원점수_최대": 2, "횡단보도수": 4, "횡단단수_최대": 2, "이단_수": 2, "보행등없음_수": 2.0, "음향_수": 2.0, "불일치_수": 0.0, "위험": 57, "인프라": 41, "부족": 1.0, "위험미확인": false, "A점수": 3.0, "차도_엣지수": 2, "교차로관리번호": "449", "x": 196743.19285014231, "y": 545564.71020007657, "lon": 126.9631642, "lat": 37.5095502 }, "geometry": { "type": "Point", "coordinates": [ 126.9631642, 37.5095502 ] } },
{ "type": "Feature", "properties": { "학교": "중앙대", "node": "13675095844", "유형": "횡단보도 있음", "지원수준": "보행등 없음", "지원점수_최대": 2, "횡단보도수": 3, "횡단단수_최대": 2, "이단_수": 3, "보행등없음_수": 2.0, "음향_수": 1.0, "불일치_수": 0.0, "위험": 57, "인프라": 45, "부족": 1.0, "위험미확인": false, "A점수": 3.0, "차도_엣지수": 4, "교차로관리번호": "1590", "x": 196811.2188128655, "y": 545472.64213808381, "lon": 126.963934, "lat": 37.5087209 }, "geometry": { "type": "Point", "coordinates": [ 126.963934, 37.5087209 ] } },
{ "type": "Feature", "properties": { "학교": "중앙대", "node": "13816446695", "유형": "횡단보도 있음", "지원수준": "보행등 없음", "지원점수_최대": 2, "횡단보도수": 1, "횡단단수_최대": 2, "이단_수": 1, "보행등없음_수": 1.0, "음향_수": 0.0, "불일치_수": 0.0, "위험": 0, "인프라": 31, "부족": null, "위험미확인": true, "A점수": null, "차도_엣지수": 3, "교차로관리번호": "1670", "x": 196524.40229258226, "y": 544821.99482684548, "lon": 126.9606931, "lat": 37.5028575 }, "geometry": { "type": "Point", "coordinates": [ 126.9606931, 37.5028575 ] } },
{ "type": "Feature", "properties": { "학교": "중앙대", "node": "2288832804", "유형": "횡단보도 있음", "지원수준": "보행등만", "지원점수_최대": 1, "횡단보도수": 3, "횡단단수_최대": 2, "이단_수": 3, "보행등없음_수": 0.0, "음향_수": 0.0, "불일치_수": 0.0, "위험": 57, "인프라": 55, "부족": 1.0, "위험미확인": false, "A점수": 2.0, "차도_엣지수": 3, "교차로관리번호": "6261", "x": 196624.84288135229, "y": 545328.12151687918, "lon": 126.9618267, "lat": 37.5074181 }, "geometry": { "type": "Point", "coordinates": [ 126.961826699999989, 37.50741810000001 ] } },
{ "type": "Feature", "properties": { "학교": "중앙대", "node": "2824550220", "유형": "횡단보도 있음", "지원수준": "보행등 없음", "지원점수_최대": 2, "횡단보도수": 2, "횡단단수_최대": 2, "이단_수": 1, "보행등없음_수": 1.0, "음향_수": 0.0, "불일치_수": 0.0, "위험": 7, "인프라": 43, "부족": 0.0, "위험미확인": false, "A점수": 2.0, "차도_엣지수": 3, "교차로관리번호": "7833", "x": 195738.26558512848, "y": 545318.10669780883, "lon": 126.9517995, "lat": 37.5073242 }, "geometry": { "type": "Point", "coordinates": [ 126.951799500000021, 37.5073242 ] } },
{ "type": "Feature", "properties": { "학교": "중앙대", "node": "2824550315", "유형": "횡단보도 있음", "지원수준": "보행등+음향", "지원점수_최대": 0, "횡단보도수": 1, "횡단단수_최대": 2, "이단_수": 1, "보행등없음_수": 0.0, "음향_수": 1.0, "불일치_수": 0.0, "위험": 23, "인프라": 27, "부족": 0.0, "위험미확인": false, "A점수": 0.0, "차도_엣지수": 2, "교차로관리번호": "8634", "x": 195898.76063257831, "y": 544458.58603482996, "lon": 126.9536195, "lat": 37.4995806 }, "geometry": { "type": "Point", "coordinates": [ 126.953619500000016, 37.4995806 ] } },
{ "type": "Feature", "properties": { "학교": "중앙대", "node": "2824550318", "유형": "횡단보도 있음", "지원수준": "보행등 없음", "지원점수_최대": 2, "횡단보도수": 3, "횡단단수_최대": 2, "이단_수": 3, "보행등없음_수": 1.0, "음향_수": 2.0, "불일치_수": 0.0, "위험": 23, "인프라": 30, "부족": 0.0, "위험미확인": false, "A점수": 2.0, "차도_엣지수": 2, "교차로관리번호": "6094", "x": 195899.26415096933, "y": 544637.00861723465, "lon": 126.9536242, "lat": 37.5011882 }, "geometry": { "type": "Point", "coordinates": [ 126.9536242, 37.5011882 ] } },
{ "type": "Feature", "properties": { "학교": "중앙대", "node": "2824550328", "유형": "횡단보도 있음", "지원수준": "보행등+음향", "지원점수_최대": 0, "횡단보도수": 3, "횡단단수_최대": 2, "이단_수": 2, "보행등없음_수": 0.0, "음향_수": 3.0, "불일치_수": 0.0, "위험": 0, "인프라": 30, "부족": null, "위험미확인": true, "A점수": null, "차도_엣지수": 3, "교차로관리번호": "5958", "x": 195897.84581875845, "y": 545060.30313716887, "lon": 126.9536058, "lat": 37.5050021 }, "geometry": { "type": "Point", "coordinates": [ 126.9536058, 37.5050021 ] } },
{ "type": "Feature", "properties": { "학교": "중앙대", "node": "2824759203", "유형": "횡단보도 있음", "지원수준": "보행등+음향", "지원점수_최대": 0, "횡단보도수": 1, "횡단단수_최대": 1, "이단_수": 0, "보행등없음_수": 0.0, "음향_수": 1.0, "불일치_수": 0.0, "위험": 0, "인프라": 25, "부족": null, "위험미확인": true, "A점수": null, "차도_엣지수": 3, "교차로관리번호": "7723", "x": 196489.05113526669, "y": 544612.39943052747, "lon": 126.9602943, "lat": 37.5009689 }, "geometry": { "type": "Point", "coordinates": [ 126.9602943, 37.5009689 ] } },
{ "type": "Feature", "properties": { "학교": "중앙대", "node": "2824759222", "유형": "횡단보도 있음", "지원수준": "보행등+음향", "지원점수_최대": 0, "횡단보도수": 2, "횡단단수_최대": 2, "이단_수": 1, "보행등없음_수": 0.0, "음향_수": 2.0, "불일치_수": 0.0, "위험": 0, "인프라": 20, "부족": null, "위험미확인": true, "A점수": null, "차도_엣지수": 3, "교차로관리번호": "8364", "x": 196505.80606986917, "y": 544461.46106418839, "lon": 126.9604845, "lat": 37.499609 }, "geometry": { "type": "Point", "coordinates": [ 126.9604845, 37.499609 ] } },
{ "type": "Feature", "properties": { "학교": "중앙대", "node": "2824759300", "유형": "횡단보도 있음", "지원수준": "보행등+음향", "지원점수_최대": 0, "횡단보도수": 4, "횡단단수_최대": 2, "이단_수": 2, "보행등없음_수": 0.0, "음향_수": 4.0, "불일치_수": 0.0, "위험": 0, "인프라": 23, "부족": null, "위험미확인": true, "A점수": null, "차도_엣지수": 3, "교차로관리번호": "4629", "x": 196463.553340179, "y": 544413.19954321615, "lon": 126.9600069, "lat": 37.499174 }, "geometry": { "type": "Point", "coordinates": [ 126.9600069, 37.499174 ] } },
{ "type": "Feature", "properties": { "학교": "중앙대", "node": "2825706556", "유형": "횡단보도 있음", "지원수준": "보행등만", "지원점수_최대": 1, "횡단보도수": 2, "횡단단수_최대": 2, "이단_수": 2, "보행등없음_수": 0.0, "음향_수": 1.0, "불일치_수": 0.0, "위험": 23, "인프라": 27, "부족": 1.0, "위험미확인": false, "A점수": 2.0, "차도_엣지수": 2, "교차로관리번호": "5407", "x": 195871.84298914822, "y": 544314.39386424387, "lon": 126.9533159, "lat": 37.4982813 }, "geometry": { "type": "Point", "coordinates": [ 126.9533159, 37.4982813 ] } },
{ "type": "Feature", "properties": { "학교": "중앙대", "node": "2825711099", "유형": "횡단보도 있음", "지원수준": "보행등 없음", "지원점수_최대": 2, "횡단보도수": 4, "횡단단수_최대": 2, "이단_수": 1, "보행등없음_수": 3.0, "음향_수": 2.0, "불일치_수": 1.0, "위험": 23, "인프라": 26, "부족": 1.0, "위험미확인": false, "A점수": 3.0, "차도_엣지수": 3, "교차로관리번호": "7140", "x": 195873.34215080162, "y": 544288.27787050931, "lon": 126.953333, "lat": 37.498046 }, "geometry": { "type": "Point", "coordinates": [ 126.953333, 37.498046 ] } },
{ "type": "Feature", "properties": { "학교": "중앙대", "node": "2825711987", "유형": "횡단보도 있음", "지원수준": "보행등 없음", "지원점수_최대": 2, "횡단보도수": 3, "횡단단수_최대": 2, "이단_수": 1, "보행등없음_수": 3.0, "음향_수": 0.0, "불일치_수": 0.0, "위험": 0, "인프라": 28, "부족": null, "위험미확인": true, "A점수": null, "차도_엣지수": 2, "교차로관리번호": "4630", "x": 196400.46518858059, "y": 544279.58709701779, "lon": 126.9592941, "lat": 37.4979699 }, "geometry": { "type": "Point", "coordinates": [ 126.9592941, 37.4979699 ] } },
{ "type": "Feature", "properties": { "학교": "중앙대", "node": "2829530328", "유형": "횡단보도 있음", "지원수준": "보행등 없음", "지원점수_최대": 2, "횡단보도수": 3, "횡단단수_최대": 2, "이단_수": 1, "보행등없음_수": 3.0, "음향_수": 0.0, "불일치_수": 0.0, "위험": 7, "인프라": 41, "부족": 0.0, "위험미확인": false, "A점수": 2.0, "차도_엣지수": 4, "교차로관리번호": "4635", "x": 195714.0650885982, "y": 545402.35843000817, "lon": 126.9515253, "lat": 37.5080832 }, "geometry": { "type": "Point", "coordinates": [ 126.951525300000014, 37.5080832 ] } },
{ "type": "Feature", "properties": { "학교": "중앙대", "node": "2829530643", "유형": "횡단보도 있음", "지원수준": "보행등+음향", "지원점수_최대": 0, "횡단보도수": 4, "횡단단수_최대": 2, "이단_수": 1, "보행등없음_수": 0.0, "음향_수": 4.0, "불일치_수": 0.0, "위험": 57, "인프라": 39, "부족": 1.0, "위험미확인": false, "A점수": 1.0, "차도_엣지수": 3, "교차로관리번호": "8012", "x": 196466.86082486087, "y": 545580.16139978915, "lon": 126.9600387, "lat": 37.5096884 }, "geometry": { "type": "Point", "coordinates": [ 126.9600387, 37.5096884 ] } },
{ "type": "Feature", "properties": { "학교": "중앙대", "node": "2829530656", "유형": "횡단보도 있음", "지원수준": "보행등+음향", "지원점수_최대": 0, "횡단보도수": 4, "횡단단수_최대": 2, "이단_수": 3, "보행등없음_수": 0.0, "음향_수": 4.0, "불일치_수": 0.0, "위험": 57, "인프라": 45, "부족": 1.0, "위험미확인": false, "A점수": 1.0, "차도_엣지수": 4, "교차로관리번호": "7993", "x": 196612.34570103098, "y": 545492.26558850019, "lon": 126.9616846, "lat": 37.508897 }, "geometry": { "type": "Point", "coordinates": [ 126.9616846, 37.508897 ] } },
{ "type": "Feature", "properties": { "학교": "중앙대", "node": "2890319153", "유형": "횡단보도 있음", "지원수준": "보행등 없음", "지원점수_최대": 2, "횡단보도수": 3, "횡단단수_최대": 2, "이단_수": 2, "보행등없음_수": 2.0, "음향_수": 0.0, "불일치_수": 0.0, "위험": 57, "인프라": 47, "부족": 1.0, "위험미확인": false, "A점수": 3.0, "차도_엣지수": 2, "교차로관리번호": "6375", "x": 196327.79873879484, "y": 545269.52398904739, "lon": 126.9584674, "lat": 37.506889 }, "geometry": { "type": "Point", "coordinates": [ 126.9584674, 37.506889 ] } },
{ "type": "Feature", "properties": { "학교": "중앙대", "node": "3119042915", "유형": "횡단보도 있음", "지원수준": "보행등 없음", "지원점수_최대": 2, "횡단보도수": 2, "횡단단수_최대": 2, "이단_수": 1, "보행등없음_수": 2.0, "음향_수": 0.0, "불일치_수": 0.0, "위험": 7, "인프라": 45, "부족": 0.0, "위험미확인": false, "A점수": 2.0, "차도_엣지수": 2, "교차로관리번호": "8307", "x": 195646.43175519793, "y": 545529.92898362258, "lon": 126.9507596, "lat": 37.5092323 }, "geometry": { "type": "Point", "coordinates": [ 126.9507596, 37.5092323 ] } },
{ "type": "Feature", "properties": { "학교": "중앙대", "node": "3119042928", "유형": "횡단보도 있음", "지원수준": "보행등 없음", "지원점수_최대": 2, "횡단보도수": 6, "횡단단수_최대": 2, "이단_수": 5, "보행등없음_수": 1.0, "음향_수": 0.0, "불일치_수": 0.0, "위험": 57, "인프라": 53, "부족": 1.0, "위험미확인": false, "A점수": 3.0, "차도_엣지수": 3, "교차로관리번호": "4506", "x": 196553.08005269294, "y": 545361.58028352226, "lon": 126.9610149, "lat": 37.5077193 }, "geometry": { "type": "Point", "coordinates": [ 126.961014899999981, 37.5077193 ] } },
{ "type": "Feature", "properties": { "학교": "중앙대", "node": "3888649136", "유형": "횡단보도 있음", "지원수준": "보행등 없음", "지원점수_최대": 2, "횡단보도수": 2, "횡단단수_최대": 2, "이단_수": 1, "보행등없음_수": 1.0, "음향_수": 0.0, "불일치_수": 0.0, "위험": 57, "인프라": 34, "부족": 1.0, "위험미확인": false, "A점수": 3.0, "차도_엣지수": 3, "교차로관리번호": "6585", "x": 197046.24424048461, "y": 545199.27160414227, "lon": 126.9665933, "lat": 37.5062586 }, "geometry": { "type": "Point", "coordinates": [ 126.9665933, 37.5062586 ] } },
{ "type": "Feature", "properties": { "학교": "중앙대", "node": "3888649139", "유형": "횡단보도 있음", "지원수준": "보행등 없음", "지원점수_최대": 2, "횡단보도수": 2, "횡단단수_최대": 2, "이단_수": 1, "보행등없음_수": 1.0, "음향_수": 1.0, "불일치_수": 0.0, "위험": 57, "인프라": 33, "부족": 1.0, "위험미확인": false, "A점수": 3.0, "차도_엣지수": 3, "교차로관리번호": "6263", "x": 197017.12243559078, "y": 545133.95494583703, "lon": 126.9662642, "lat": 37.50567 }, "geometry": { "type": "Point", "coordinates": [ 126.9662642, 37.50567 ] } },
{ "type": "Feature", "properties": { "학교": "중앙대", "node": "436821679", "유형": "횡단보도 있음", "지원수준": "보행등+음향", "지원점수_최대": 0, "횡단보도수": 1, "횡단단수_최대": 2, "이단_수": 1, "보행등없음_수": 0.0, "음향_수": 1.0, "불일치_수": 0.0, "위험": 7, "인프라": 59, "부족": 0.0, "위험미확인": false, "A점수": 0.0, "차도_엣지수": 3, "교차로관리번호": "1686", "x": 195536.50542297633, "y": 544968.65833839879, "lon": 126.9495197, "lat": 37.5041747 }, "geometry": { "type": "Point", "coordinates": [ 126.94951970000001, 37.5041747 ] } },
{ "type": "Feature", "properties": { "학교": "중앙대", "node": "436883217", "유형": "횡단보도 있음", "지원수준": "보행등 없음", "지원점수_최대": 2, "횡단보도수": 3, "횡단단수_최대": 2, "이단_수": 1, "보행등없음_수": 2.0, "음향_수": 1.0, "불일치_수": 0.0, "위험": 7, "인프라": 53, "부족": 0.0, "위험미확인": false, "A점수": 2.0, "차도_엣지수": 3, "교차로관리번호": "1659", "x": 195635.3676349913, "y": 545034.54336921382, "lon": 126.9506374, "lat": 37.5047688 }, "geometry": { "type": "Point", "coordinates": [ 126.9506374, 37.5047688 ] } },
{ "type": "Feature", "properties": { "학교": "중앙대", "node": "436883256", "유형": "횡단보도 있음", "지원수준": "보행등 없음", "지원점수_최대": 2, "횡단보도수": 1, "횡단단수_최대": 2, "이단_수": 1, "보행등없음_수": 1.0, "음향_수": 0.0, "불일치_수": 0.0, "위험": 57, "인프라": 46, "부족": 1.0, "위험미확인": false, "A점수": 3.0, "차도_엣지수": 2, "교차로관리번호": "8306", "x": 196572.18372561302, "y": 545418.43114002282, "lon": 126.9612307, "lat": 37.5082316 }, "geometry": { "type": "Point", "coordinates": [ 126.9612307, 37.5082316 ] } },
{ "type": "Feature", "properties": { "학교": "중앙대", "node": "4611303880", "유형": "횡단보도 있음", "지원수준": "보행등 없음", "지원점수_최대": 2, "횡단보도수": 2, "횡단단수_최대": 2, "이단_수": 2, "보행등없음_수": 2.0, "음향_수": 0.0, "불일치_수": 0.0, "위험": 0, "인프라": 32, "부족": null, "위험미확인": true, "A점수": null, "차도_엣지수": 3, "교차로관리번호": "8879", "x": 196852.02851684063, "y": 544857.75767331105, "lon": 126.9643982, "lat": 37.5031809 }, "geometry": { "type": "Point", "coordinates": [ 126.9643982, 37.5031809 ] } },
{ "type": "Feature", "properties": { "학교": "중앙대", "node": "4613243688", "유형": "횡단보도 있음", "지원수준": "보행등 없음", "지원점수_최대": 2, "횡단보도수": 2, "횡단단수_최대": 2, "이단_수": 2, "보행등없음_수": 2.0, "음향_수": 0.0, "불일치_수": 0.0, "위험": 0, "인프라": 29, "부족": null, "위험미확인": true, "A점수": null, "차도_엣지수": 2, "교차로관리번호": "5366", "x": 196035.13110246378, "y": 545200.80184911576, "lon": 126.9551577, "lat": 37.5062686 }, "geometry": { "type": "Point", "coordinates": [ 126.955157700000015, 37.5062686 ] } },
{ "type": "Feature", "properties": { "학교": "중앙대", "node": "4613243837", "유형": "횡단보도 있음", "지원수준": "보행등 없음", "지원점수_최대": 2, "횡단보도수": 2, "횡단단수_최대": 2, "이단_수": 1, "보행등없음_수": 1.0, "음향_수": 0.0, "불일치_수": 0.0, "위험": 57, "인프라": 52, "부족": 1.0, "위험미확인": false, "A점수": 3.0, "차도_엣지수": 2, "교차로관리번호": "4507", "x": 196209.37689516161, "y": 545220.8426204141, "lon": 126.9571283, "lat": 37.5064499 }, "geometry": { "type": "Point", "coordinates": [ 126.9571283, 37.5064499 ] } },
{ "type": "Feature", "properties": { "학교": "중앙대", "node": "4621486060", "유형": "횡단보도 있음", "지원수준": "보행등 없음", "지원점수_최대": 2, "횡단보도수": 3, "횡단단수_최대": 2, "이단_수": 1, "보행등없음_수": 2.0, "음향_수": 0.0, "불일치_수": 0.0, "위험": 7, "인프라": 51, "부족": 0.0, "위험미확인": false, "A점수": 2.0, "차도_엣지수": 4, "교차로관리번호": "1660", "x": 195754.84708705611, "y": 545047.37826530507, "lon": 126.9519886, "lat": 37.504885 }, "geometry": { "type": "Point", "coordinates": [ 126.9519886, 37.504885 ] } },
{ "type": "Feature", "properties": { "학교": "중앙대", "node": "4621488498", "유형": "횡단보도 있음", "지원수준": "보행등 없음", "지원점수_최대": 2, "횡단보도수": 2, "횡단단수_최대": 1, "이단_수": 0, "보행등없음_수": 1.0, "음향_수": 0.0, "불일치_수": 0.0, "위험": 7, "인프라": 43, "부족": 0.0, "위험미확인": false, "A점수": 2.0, "차도_엣지수": 2, "교차로관리번호": "1661", "x": 195777.71597334358, "y": 545141.49485310307, "lon": 126.9522467, "lat": 37.5057331 }, "geometry": { "type": "Point", "coordinates": [ 126.9522467, 37.5057331 ] } },
{ "type": "Feature", "properties": { "학교": "중앙대", "node": "7775271120", "유형": "횡단보도 있음", "지원수준": "보행등 없음", "지원점수_최대": 2, "횡단보도수": 2, "횡단단수_최대": 2, "이단_수": 1, "보행등없음_수": 2.0, "음향_수": 0.0, "불일치_수": 0.0, "위험": 57, "인프라": 48, "부족": 1.0, "위험미확인": false, "A점수": 3.0, "차도_엣지수": 3, "교차로관리번호": "5727", "x": 196393.60575366291, "y": 545305.67703192751, "lon": 126.9592115, "lat": 37.507215 }, "geometry": { "type": "Point", "coordinates": [ 126.9592115, 37.507215 ] } },
{ "type": "Feature", "properties": { "학교": "중앙대", "node": "8482522490", "유형": "횡단보도 있음", "지원수준": "보행등 없음", "지원점수_최대": 2, "횡단보도수": 3, "횡단단수_최대": 2, "이단_수": 2, "보행등없음_수": 1.0, "음향_수": 2.0, "불일치_수": 0.0, "위험": 57, "인프라": 36, "부족": 1.0, "위험미확인": false, "A점수": 3.0, "차도_엣지수": 2, "교차로관리번호": "1589", "x": 197066.07768962183, "y": 545278.10987970454, "lon": 126.9668173, "lat": 37.506969 }, "geometry": { "type": "Point", "coordinates": [ 126.966817299999988, 37.506969 ] } },
{ "type": "Feature", "properties": { "학교": "중앙대", "node": "571454796", "유형": "횡단보도 없는 교차로", "지원수준": "횡단보도 없음", "지원점수_최대": 3, "횡단보도수": 0, "횡단단수_최대": 1, "이단_수": 0, "보행등없음_수": null, "음향_수": null, "불일치_수": null, "위험": 0, "인프라": 34, "부족": null, "위험미확인": true, "A점수": null, "차도_엣지수": 3, "교차로관리번호": null, "x": 195918.81004555782, "y": 545853.26332183927, "lon": 126.9538385, "lat": 37.5121468 }, "geometry": { "type": "Point", "coordinates": [ 126.953838500000018, 37.5121468 ] } },
{ "type": "Feature", "properties": { "학교": "중앙대", "node": "3888649128", "유형": "횡단보도 없는 교차로", "지원수준": "횡단보도 없음", "지원점수_최대": 3, "횡단보도수": 0, "횡단단수_최대": 1, "이단_수": 0, "보행등없음_수": null, "음향_수": null, "불일치_수": null, "위험": 57, "인프라": 45, "부족": 1.0, "위험미확인": false, "A점수": 4.0, "차도_엣지수": 3, "교차로관리번호": null, "x": 196926.00500074387, "y": 545320.30228781258, "lon": 126.9652329, "lat": 37.5073487 }, "geometry": { "type": "Point", "coordinates": [ 126.9652329, 37.5073487 ] } },
{ "type": "Feature", "properties": { "학교": "중앙대", "node": "3888649162", "유형": "횡단보도 없는 교차로", "지원수준": "횡단보도 없음", "지원점수_최대": 3, "횡단보도수": 0, "횡단단수_최대": 1, "이단_수": 0, "보행등없음_수": null, "음향_수": null, "불일치_수": null, "위험": 57, "인프라": 43, "부족": 1.0, "위험미확인": false, "A점수": 4.0, "차도_엣지수": 3, "교차로관리번호": null, "x": 196994.80864334048, "y": 545313.91758597945, "lon": 126.9660111, "lat": 37.5072914 }, "geometry": { "type": "Point", "coordinates": [ 126.966011100000017, 37.5072914 ] } },
{ "type": "Feature", "properties": { "학교": "중앙대", "node": "2288832800", "유형": "횡단보도 없는 교차로", "지원수준": "횡단보도 없음", "지원점수_최대": 3, "횡단보도수": 0, "횡단단수_최대": 1, "이단_수": 0, "보행등없음_수": null, "음향_수": null, "불일치_수": null, "위험": 57, "인프라": 50, "부족": 1.0, "위험미확인": false, "A점수": 4.0, "차도_엣지수": 4, "교차로관리번호": null, "x": 196735.12817057382, "y": 545403.67089595064, "lon": 126.9630737, "lat": 37.5080992 }, "geometry": { "type": "Point", "coordinates": [ 126.9630737, 37.5080992 ] } },
{ "type": "Feature", "properties": { "학교": "중앙대", "node": "4644112573", "유형": "횡단보도 없는 교차로", "지원수준": "횡단보도 없음", "지원점수_최대": 3, "횡단보도수": 0, "횡단단수_최대": 1, "이단_수": 0, "보행등없음_수": null, "음향_수": null, "불일치_수": null, "위험": 7, "인프라": 53, "부족": 0.0, "위험미확인": false, "A점수": 3.0, "차도_엣지수": 3, "교차로관리번호": null, "x": 195614.3810108504, "y": 545126.48508171912, "lon": 126.9503995, "lat": 37.5055971 }, "geometry": { "type": "Point", "coordinates": [ 126.9503995, 37.50559710000001 ] } },
{ "type": "Feature", "properties": { "학교": "중앙대", "node": "2829530351", "유형": "횡단보도 없는 교차로", "지원수준": "횡단보도 없음", "지원점수_최대": 3, "횡단보도수": 0, "횡단단수_최대": 1, "이단_수": 0, "보행등없음_수": null, "음향_수": null, "불일치_수": null, "위험": 0, "인프라": 36, "부족": null, "위험미확인": true, "A점수": null, "차도_엣지수": 3, "교차로관리번호": null, "x": 195921.57071800856, "y": 545821.77487121092, "lon": 126.9538699, "lat": 37.5118631 }, "geometry": { "type": "Point", "coordinates": [ 126.9538699, 37.5118631 ] } },
{ "type": "Feature", "properties": { "학교": "중앙대", "node": "4644112576", "유형": "횡단보도 없는 교차로", "지원수준": "횡단보도 없음", "지원점수_최대": 3, "횡단보도수": 0, "횡단단수_최대": 1, "이단_수": 0, "보행등없음_수": null, "음향_수": null, "불일치_수": null, "위험": 7, "인프라": 59, "부족": 0.0, "위험미확인": false, "A점수": 3.0, "차도_엣지수": 3, "교차로관리번호": null, "x": 195554.0249740174, "y": 545041.29005847371, "lon": 126.9497174, "lat": 37.5048292 }, "geometry": { "type": "Point", "coordinates": [ 126.949717400000011, 37.5048292 ] } },
{ "type": "Feature", "properties": { "학교": "중앙대", "node": "1831853301", "유형": "횡단보도 없는 교차로", "지원수준": "횡단보도 없음", "지원점수_최대": 3, "횡단보도수": 0, "횡단단수_최대": 1, "이단_수": 0, "보행등없음_수": null, "음향_수": null, "불일치_수": null, "위험": 7, "인프라": 51, "부족": 0.0, "위험미확인": false, "A점수": 3.0, "차도_엣지수": 3, "교차로관리번호": null, "x": 195620.1549137524, "y": 545093.17478748749, "lon": 126.950465, "lat": 37.505297 }, "geometry": { "type": "Point", "coordinates": [ 126.950465, 37.505297 ] } },
{ "type": "Feature", "properties": { "학교": "중앙대", "node": "10239817464", "유형": "횡단보도 없는 교차로", "지원수준": "횡단보도 없음", "지원점수_최대": 3, "횡단보도수": 0, "횡단단수_최대": 1, "이단_수": 0, "보행등없음_수": null, "음향_수": null, "불일치_수": null, "위험": 7, "인프라": 60, "부족": 0.0, "위험미확인": false, "A점수": 3.0, "차도_엣지수": 3, "교차로관리번호": null, "x": 195568.5083062858, "y": 544991.80425390601, "lon": 126.9498815, "lat": 37.5043834 }, "geometry": { "type": "Point", "coordinates": [ 126.949881499999989, 37.5043834 ] } },
{ "type": "Feature", "properties": { "학교": "중앙대", "node": "2825701323", "유형": "횡단보도 없는 교차로", "지원수준": "횡단보도 없음", "지원점수_최대": 3, "횡단보도수": 0, "횡단단수_최대": 1, "이단_수": 0, "보행등없음_수": null, "음향_수": null, "불일치_수": null, "위험": 7, "인프라": 56, "부족": 0.0, "위험미확인": false, "A점수": 3.0, "차도_엣지수": 3, "교차로관리번호": null, "x": 195601.69454352173, "y": 545012.49685114226, "lon": 126.9502567, "lat": 37.50457 }, "geometry": { "type": "Point", "coordinates": [ 126.9502567, 37.50457 ] } },
{ "type": "Feature", "properties": { "학교": "중앙대", "node": "3888649121", "유형": "횡단보도 없는 교차로", "지원수준": "횡단보도 없음", "지원점수_최대": 3, "횡단보도수": 0, "횡단단수_최대": 1, "이단_수": 0, "보행등없음_수": null, "음향_수": null, "불일치_수": null, "위험": 57, "인프라": 50, "부족": 1.0, "위험미확인": false, "A점수": 4.0, "차도_엣지수": 3, "교차로관리번호": null, "x": 196744.21662556933, "y": 545401.88044039765, "lon": 126.9631765, "lat": 37.5080831 }, "geometry": { "type": "Point", "coordinates": [ 126.963176499999989, 37.5080831 ] } },
{ "type": "Feature", "properties": { "학교": "중앙대", "node": "2824550249", "유형": "횡단보도 없는 교차로", "지원수준": "횡단보도 없음", "지원점수_최대": 3, "횡단보도수": 0, "횡단단수_최대": 1, "이단_수": 0, "보행등없음_수": null, "음향_수": null, "불일치_수": null, "위험": 0, "인프라": 34, "부족": null, "위험미확인": true, "A점수": null, "차도_엣지수": 3, "교차로관리번호": null, "x": 195746.94901698147, "y": 544818.19383672625, "lon": 126.9519006, "lat": 37.50282 }, "geometry": { "type": "Point", "coordinates": [ 126.951900600000016, 37.50282 ] } },
{ "type": "Feature", "properties": { "학교": "중앙대", "node": "2825701329", "유형": "횡단보도 없는 교차로", "지원수준": "횡단보도 없음", "지원점수_최대": 3, "횡단보도수": 0, "횡단단수_최대": 1, "이단_수": 0, "보행등없음_수": null, "음향_수": null, "불일치_수": null, "위험": 0, "인프라": 31, "부족": null, "위험미확인": true, "A점수": null, "차도_엣지수": 3, "교차로관리번호": null, "x": 195723.24662334533, "y": 544790.75886783819, "lon": 126.9516327, "lat": 37.5025727 }, "geometry": { "type": "Point", "coordinates": [ 126.951632700000019, 37.5025727 ] } },
{ "type": "Feature", "properties": { "학교": "중앙대", "node": "4621475847", "유형": "횡단보도 없는 교차로", "지원수준": "횡단보도 없음", "지원점수_최대": 3, "횡단보도수": 0, "횡단단수_최대": 1, "이단_수": 0, "보행등없음_수": null, "음향_수": null, "불일치_수": null, "위험": 0, "인프라": 33, "부족": null, "위험미확인": true, "A점수": null, "차도_엣지수": 3, "교차로관리번호": null, "x": 195750.19830927756, "y": 544791.78833924013, "lon": 126.9519375, "lat": 37.5025821 }, "geometry": { "type": "Point", "coordinates": [ 126.9519375, 37.5025821 ] } },
{ "type": "Feature", "properties": { "학교": "중앙대", "node": "2824550259", "유형": "횡단보도 없는 교차로", "지원수준": "횡단보도 없음", "지원점수_최대": 3, "횡단보도수": 0, "횡단단수_최대": 1, "이단_수": 0, "보행등없음_수": null, "음향_수": null, "불일치_수": null, "위험": 23, "인프라": 28, "부족": 0.0, "위험미확인": false, "A점수": 3.0, "차도_엣지수": 3, "교차로관리번호": null, "x": 195665.69783205961, "y": 544444.54219763307, "lon": 126.9509839, "lat": 37.499453 }, "geometry": { "type": "Point", "coordinates": [ 126.9509839, 37.499453 ] } },
{ "type": "Feature", "properties": { "학교": "중앙대", "node": "4612845662", "유형": "횡단보도 없는 교차로", "지원수준": "횡단보도 없음", "지원점수_최대": 3, "횡단보도수": 0, "횡단단수_최대": 1, "이단_수": 0, "보행등없음_수": null, "음향_수": null, "불일치_수": null, "위험": 57, "인프라": 59, "부족": 1.0, "위험미확인": false, "A점수": 4.0, "차도_엣지수": 4, "교차로관리번호": null, "x": 196695.41174754148, "y": 545270.11347869725, "lon": 126.9626251, "lat": 37.5068957 }, "geometry": { "type": "Point", "coordinates": [ 126.962625099999983, 37.5068957 ] } },
{ "type": "Feature", "properties": { "학교": "중앙대", "node": "2825701311", "유형": "횡단보도 없는 교차로", "지원수준": "횡단보도 없음", "지원점수_최대": 3, "횡단보도수": 0, "횡단단수_최대": 1, "이단_수": 0, "보행등없음_수": null, "음향_수": null, "불일치_수": null, "위험": 0, "인프라": 49, "부족": null, "위험미확인": true, "A점수": null, "차도_엣지수": 3, "교차로관리번호": null, "x": 195600.81097097267, "y": 544729.34692473046, "lon": 126.9502484, "lat": 37.5020188 }, "geometry": { "type": "Point", "coordinates": [ 126.9502484, 37.5020188 ] } },
{ "type": "Feature", "properties": { "학교": "중앙대", "node": "2825711413", "유형": "횡단보도 없는 교차로", "지원수준": "횡단보도 없음", "지원점수_최대": 3, "횡단보도수": 0, "횡단단수_최대": 1, "이단_수": 0, "보행등없음_수": null, "음향_수": null, "불일치_수": null, "위험": 23, "인프라": 33, "부족": 0.0, "위험미확인": false, "A점수": 3.0, "차도_엣지수": 3, "교차로관리번호": null, "x": 195977.32906992562, "y": 544188.21655275777, "lon": 126.9545095, "lat": 37.4971449 }, "geometry": { "type": "Point", "coordinates": [ 126.9545095, 37.4971449 ] } },
{ "type": "Feature", "properties": { "학교": "중앙대", "node": "2829530337", "유형": "횡단보도 없는 교차로", "지원수준": "횡단보도 없음", "지원점수_최대": 3, "횡단보도수": 0, "횡단단수_최대": 1, "이단_수": 0, "보행등없음_수": null, "음향_수": null, "불일치_수": null, "위험": 0, "인프라": 43, "부족": null, "위험미확인": true, "A점수": null, "차도_엣지수": 3, "교차로관리번호": null, "x": 196007.16596158806, "y": 545535.55267071829, "lon": 126.9548396, "lat": 37.5092846 }, "geometry": { "type": "Point", "coordinates": [ 126.9548396, 37.5092846 ] } },
{ "type": "Feature", "properties": { "학교": "중앙대", "node": "2829530336", "유형": "횡단보도 없는 교차로", "지원수준": "횡단보도 없음", "지원점수_최대": 3, "횡단보도수": 0, "횡단단수_최대": 1, "이단_수": 0, "보행등없음_수": null, "음향_수": null, "불일치_수": null, "위험": 0, "인프라": 36, "부족": null, "위험미확인": true, "A점수": null, "차도_엣지수": 3, "교차로관리번호": null, "x": 196078.845076075, "y": 545576.17320794088, "lon": 126.9556501, "lat": 37.5096509 }, "geometry": { "type": "Point", "coordinates": [ 126.955650100000014, 37.5096509 ] } },
{ "type": "Feature", "properties": { "학교": "중앙대", "node": "4613249929", "유형": "횡단보도 없는 교차로", "지원수준": "횡단보도 없음", "지원점수_최대": 3, "횡단보도수": 0, "횡단단수_최대": 1, "이단_수": 0, "보행등없음_수": null, "음향_수": null, "불일치_수": null, "위험": 0, "인프라": 36, "부족": null, "위험미확인": true, "A점수": null, "차도_엣지수": 3, "교차로관리번호": null, "x": 196070.20576330204, "y": 545573.5135902341, "lon": 126.9555524, "lat": 37.5096269 }, "geometry": { "type": "Point", "coordinates": [ 126.9555524, 37.5096269 ] } },
{ "type": "Feature", "properties": { "학교": "중앙대", "node": "11179633109", "유형": "횡단보도 없는 교차로", "지원수준": "횡단보도 없음", "지원점수_최대": 3, "횡단보도수": 0, "횡단단수_최대": 1, "이단_수": 0, "보행등없음_수": null, "음향_수": null, "불일치_수": null, "위험": 0, "인프라": 40, "부족": null, "위험미확인": true, "A점수": null, "차도_엣지수": 3, "교차로관리번호": null, "x": 196116.59780213106, "y": 545538.09797277977, "lon": 126.9560773, "lat": 37.509308 }, "geometry": { "type": "Point", "coordinates": [ 126.9560773, 37.509308 ] } },
{ "type": "Feature", "properties": { "학교": "중앙대", "node": "2829530350", "유형": "횡단보도 없는 교차로", "지원수준": "횡단보도 없음", "지원점수_최대": 3, "횡단보도수": 0, "횡단단수_최대": 1, "이단_수": 0, "보행등없음_수": null, "음향_수": null, "불일치_수": null, "위험": 0, "인프라": 42, "부족": null, "위험미확인": true, "A점수": null, "차도_엣지수": 3, "교차로관리번호": null, "x": 195869.42779866428, "y": 545683.69911887287, "lon": 126.9532809, "lat": 37.5106188 }, "geometry": { "type": "Point", "coordinates": [ 126.9532809, 37.51061880000001 ] } },
{ "type": "Feature", "properties": { "학교": "중앙대", "node": "2829530357", "유형": "횡단보도 없는 교차로", "지원수준": "횡단보도 없음", "지원점수_최대": 3, "횡단보도수": 0, "횡단단수_최대": 1, "이단_수": 0, "보행등없음_수": null, "음향_수": null, "불일치_수": null, "위험": 0, "인프라": 42, "부족": null, "위험미확인": true, "A점수": null, "차도_엣지수": 3, "교차로관리번호": null, "x": 195879.58781288748, "y": 545686.45766369277, "lon": 126.9533958, "lat": 37.5106437 }, "geometry": { "type": "Point", "coordinates": [ 126.9533958, 37.5106437 ] } },
{ "type": "Feature", "properties": { "학교": "중앙대", "node": "2829530628", "유형": "횡단보도 없는 교차로", "지원수준": "횡단보도 없음", "지원점수_최대": 3, "횡단보도수": 0, "횡단단수_최대": 1, "이단_수": 0, "보행등없음_수": null, "음향_수": null, "불일치_수": null, "위험": 57, "인프라": 50, "부족": 1.0, "위험미확인": false, "A점수": 4.0, "차도_엣지수": 4, "교차로관리번호": null, "x": 196478.47301140809, "y": 545337.58279630519, "lon": 126.9601712, "lat": 37.5075028 }, "geometry": { "type": "Point", "coordinates": [ 126.9601712, 37.5075028 ] } },
{ "type": "Feature", "properties": { "학교": "중앙대", "node": "4612845666", "유형": "횡단보도 없는 교차로", "지원수준": "횡단보도 없음", "지원점수_최대": 3, "횡단보도수": 0, "횡단단수_최대": 1, "이단_수": 0, "보행등없음_수": null, "음향_수": null, "불일치_수": null, "위험": 57, "인프라": 49, "부족": 1.0, "위험미확인": false, "A점수": 4.0, "차도_엣지수": 3, "교차로관리번호": null, "x": 196819.89468529957, "y": 545386.24636874371, "lon": 126.9640325, "lat": 37.5079425 }, "geometry": { "type": "Point", "coordinates": [ 126.964032499999988, 37.5079425 ] } },
{ "type": "Feature", "properties": { "학교": "중앙대", "node": "4613249924", "유형": "횡단보도 없는 교차로", "지원수준": "횡단보도 없음", "지원점수_최대": 3, "횡단보도수": 0, "횡단단수_최대": 1, "이단_수": 0, "보행등없음_수": null, "음향_수": null, "불일치_수": null, "위험": 0, "인프라": 36, "부족": null, "위험미확인": true, "A점수": null, "차도_엣지수": 3, "교차로관리번호": null, "x": 195952.68886482783, "y": 545798.06388623232, "lon": 126.954222, "lat": 37.5116496 }, "geometry": { "type": "Point", "coordinates": [ 126.954222, 37.5116496 ] } },
{ "type": "Feature", "properties": { "학교": "중앙대", "node": "4613249938", "유형": "횡단보도 없는 교차로", "지원수준": "횡단보도 없음", "지원점수_최대": 3, "횡단보도수": 0, "횡단단수_최대": 1, "이단_수": 0, "보행등없음_수": null, "음향_수": null, "불일치_수": null, "위험": 0, "인프라": 35, "부족": null, "위험미확인": true, "A점수": null, "차도_엣지수": 3, "교차로관리번호": null, "x": 196171.18432329202, "y": 545671.30177345301, "lon": 126.956694, "lat": 37.5105084 }, "geometry": { "type": "Point", "coordinates": [ 126.956694, 37.5105084 ] } },
{ "type": "Feature", "properties": { "학교": "중앙대", "node": "4613249952", "유형": "횡단보도 없는 교차로", "지원수준": "횡단보도 없음", "지원점수_최대": 3, "횡단보도수": 0, "횡단단수_최대": 1, "이단_수": 0, "보행등없음_수": null, "음향_수": null, "불일치_수": null, "위험": 0, "인프라": 28, "부족": null, "위험미확인": true, "A점수": null, "차도_엣지수": 3, "교차로관리번호": null, "x": 196186.48138680152, "y": 545713.37002130237, "lon": 126.9568668, "lat": 37.5108875 }, "geometry": { "type": "Point", "coordinates": [ 126.9568668, 37.5108875 ] } }
]
}
