{
"type": "FeatureCollection",
"name": "chungang_campus_polygon",
"crs": { "type": "name", "properties": { "name": "urn:ogc:def:crs:OGC:1.3:CRS84" } },
"features": [
{ "type": "Feature", "properties": { }, "geometry": { "type": "Polygon", "coordinates": [ [ [ 126.953878, 37.5049046 ], [ 126.9539423, 37.5050133 ], [ 126.9545883, 37.506106 ], [ 126.9548271, 37.506169 ], [ 126.9552902, 37.5061437 ], [ 126.9552685, 37.5060401 ], [ 126.9548948, 37.5059507 ], [ 126.9548019, 37.5057939 ], [ 126.9546447, 37.5053775 ], [ 126.9554167, 37.5053155 ], [ 126.9555741, 37.5053028 ], [ 126.9564404, 37.5052884 ], [ 126.9567515, 37.5055438 ], [ 126.9567124, 37.5057492 ], [ 126.9569821, 37.5059229 ], [ 126.9570234, 37.5061196 ], [ 126.9576595, 37.5066286 ], [ 126.9584213, 37.5067563 ], [ 126.9587079, 37.5068942 ], [ 126.9591853, 37.5069963 ], [ 126.9592454, 37.5069554 ], [ 126.9592282, 37.5064643 ], [ 126.9594466, 37.5064186 ], [ 126.9596322, 37.5062916 ], [ 126.9595807, 37.5060697 ], [ 126.9593073, 37.5055784 ], [ 126.9592444, 37.5053031 ], [ 126.9591275, 37.5052302 ], [ 126.9585854, 37.5044594 ], [ 126.9586128, 37.503531 ], [ 126.9581073, 37.503017 ], [ 126.9576149, 37.5029354 ], [ 126.9570142, 37.502253 ], [ 126.95694, 37.5017743 ], [ 126.9567274, 37.5021311 ], [ 126.9563516, 37.5021053 ], [ 126.9557769, 37.5021774 ], [ 126.9555496, 37.5022225 ], [ 126.9554253, 37.503752 ], [ 126.9553333, 37.5037474 ], [ 126.9552767, 37.5038054 ], [ 126.9541666, 37.5042043 ], [ 126.9540204, 37.5042568 ], [ 126.9539314, 37.5044324 ], [ 126.9539744, 37.5047404 ], [ 126.953971, 37.50487 ], [ 126.953878, 37.5049046 ] ] ] } }
]
}
