{
"type": "FeatureCollection",
"name": "soongsil_campus_polygon",
"crs": { "type": "name", "properties": { "name": "urn:ogc:def:crs:OGC:1.3:CRS84" } },
"features": [
{ "type": "Feature", "properties": { }, "geometry": { "type": "MultiPolygon", "coordinates": [ [ [ [ 126.9594315, 37.4943526 ], [ 126.9595558, 37.4947979 ], [ 126.9595787, 37.4948167 ], [ 126.9603361, 37.4947082 ], [ 126.9600353, 37.4942982 ], [ 126.9597672, 37.4942896 ], [ 126.9594315, 37.4943526 ] ] ], [ [ [ 126.9594115, 37.494528 ], [ 126.9591931, 37.4945007 ], [ 126.9590228, 37.494531 ], [ 126.9590317, 37.4947367 ], [ 126.959175, 37.494859 ], [ 126.9594912, 37.4948138 ], [ 126.9594561, 37.4946657 ], [ 126.9594115, 37.494528 ] ] ], [ [ [ 126.9545641, 37.4971048 ], [ 126.9552548, 37.4971144 ], [ 126.9552949, 37.4977912 ], [ 126.9554022, 37.4979082 ], [ 126.9555384, 37.4979268 ], [ 126.95559, 37.4979338 ], [ 126.9557509, 37.4978955 ], [ 126.9563448, 37.4978846 ], [ 126.9565891, 37.4979008 ], [ 126.9570785, 37.4978641 ], [ 126.9578269, 37.4975486 ], [ 126.958299, 37.4973869 ], [ 126.9587657, 37.4973549 ], [ 126.9589457, 37.4972381 ], [ 126.958822, 37.4971434 ], [ 126.958828, 37.4969409 ], [ 126.9588618, 37.4968034 ], [ 126.9590606, 37.4966457 ], [ 126.9592825, 37.496538 ], [ 126.9593566, 37.496502 ], [ 126.9597189, 37.4960288 ], [ 126.9606467, 37.4957063 ], [ 126.9607748, 37.495517 ], [ 126.960741, 37.4953542 ], [ 126.9610833, 37.4951543 ], [ 126.9607992, 37.4948825 ], [ 126.9604721, 37.4948725 ], [ 126.9547141, 37.4957394 ], [ 126.9545798, 37.4957596 ], [ 126.9543781, 37.4957892 ], [ 126.9541075, 37.4960957 ], [ 126.9535926, 37.496679 ], [ 126.9536864, 37.4967311 ], [ 126.9538986, 37.4968491 ], [ 126.9545096, 37.4968614 ], [ 126.9545641, 37.4971048 ] ] ] ] } }
]
}
